{"type":"FeatureCollection","features":[{"type":"Feature","properties":{"FID":"0"},"geometry":{"type":"MultiPolygon","coordinates":[[[[2.423513,49.002419],[2.429837,49.006419],[2.43231,49.008011],[2.443955,49.015402],[2.449212,49.018768],[2.449061,49.018869],[2.449566,49.019197],[2.449521,49.019228],[2.450743,49.019989],[2.451237,49.020253],[2.451476,49.020406],[2.451604,49.020319],[2.451525,49.020392],[2.452417,49.020802],[2.452627,49.020916],[2.453131,49.021236],[2.454183,49.021927],[2.45415,49.02195],[2.455502,49.0228],[2.455673,49.022955],[2.455716,49.022935],[2.455744,49.022953],[2.455695,49.022976],[2.456067,49.023361],[2.456566,49.023801],[2.457068,49.024165],[2.458223,49.024925],[2.45847,49.024768],[2.45891,49.025074],[2.458958,49.025044],[2.459958,49.025687],[2.460054,49.025622],[2.461839,49.026763],[2.461879,49.026737],[2.461953,49.026783],[2.461919,49.026814],[2.46279,49.02738],[2.472268,49.033368],[2.47348,49.034169],[2.474204,49.034669],[2.474851,49.035085],[2.476168,49.0359],[2.477761,49.036852],[2.488039,49.043378],[2.48856,49.043725],[2.490371,49.045048],[2.491911,49.046221],[2.492969,49.046992],[2.494183,49.047848],[2.495221,49.04863],[2.499265,49.051595],[2.500798,49.052743],[2.511891,49.060872],[2.515742,49.063714],[2.516191,49.064073],[2.516484,49.064334],[2.516734,49.064574],[2.517129,49.065007],[2.517399,49.065368],[2.517708,49.065866],[2.517985,49.066457],[2.518086,49.066744],[2.518209,49.06734],[2.519184,49.077293],[2.519344,49.079274],[2.52023,49.088275],[2.520569,49.092078],[2.520649,49.092652],[2.520598,49.092658],[2.520598,49.092658],[2.520711,49.093096],[2.520851,49.094241],[2.520817,49.094392],[2.520787,49.094836],[2.52075,49.094928],[2.520632,49.094923],[2.520573,49.095439],[2.520516,49.095635],[2.520697,49.095658],[2.520592,49.096357],[2.520582,49.096619],[2.520602,49.097095],[2.520781,49.098806],[2.521153,49.098789],[2.521158,49.098843],[2.521261,49.098839],[2.521314,49.099143],[2.521508,49.101241],[2.522218,49.101215],[2.52222,49.101229],[2.523065,49.101184],[2.525817,49.101083],[2.529749,49.101367],[2.52978,49.101179],[2.527562,49.101019],[2.528526,49.100984],[2.529799,49.101029],[2.529812,49.100872],[2.530387,49.100848],[2.530382,49.100797],[2.530464,49.100792],[2.530309,49.099532],[2.530066,49.097149],[2.529975,49.096525],[2.52944,49.093849],[2.529137,49.092477],[2.529001,49.09166],[2.528559,49.086848],[2.528096,49.082336],[2.527049,49.071068],[2.526921,49.069973],[2.5266,49.066787],[2.526486,49.066167],[2.52634,49.065637],[2.526144,49.065058],[2.525896,49.064483],[2.525636,49.06398],[2.525329,49.063452],[2.525004,49.062973],[2.5245,49.062315],[2.523899,49.061642],[2.523345,49.061091],[2.522719,49.060544],[2.522113,49.060088],[2.516153,49.055719],[2.514754,49.054669],[2.511447,49.05224],[2.509884,49.051112],[2.506992,49.048774],[2.504616,49.046995],[2.503684,49.046326],[2.500371,49.044096],[2.498204,49.042527],[2.496691,49.041394],[2.494614,49.039877],[2.493911,49.039408],[2.48618,49.034498],[2.484751,49.033571],[2.473712,49.026603],[2.471628,49.025269],[2.470776,49.024621],[2.468538,49.022767],[2.467598,49.022032],[2.46621,49.021073],[2.465314,49.020522],[2.463953,49.01978],[2.463251,49.019429],[2.461122,49.018428],[2.460207,49.017969],[2.459798,49.017727],[2.458183,49.016698],[2.470401,49.01933],[2.477144,49.020745],[2.478927,49.021144],[2.480939,49.021635],[2.483224,49.022254],[2.484251,49.022553],[2.486104,49.023129],[2.487789,49.023695],[2.488809,49.02406],[2.490924,49.02486],[2.492135,49.025347],[2.493623,49.025991],[2.494759,49.026503],[2.497038,49.027617],[2.498659,49.028445],[2.5109,49.034979],[2.510936,49.03495],[2.510948,49.034956],[2.510912,49.034985],[2.523715,49.041811],[2.52614,49.043078],[2.528235,49.044103],[2.529758,49.044811],[2.531668,49.045671],[2.558887,49.057698],[2.565415,49.060597],[2.569201,49.062258],[2.569232,49.062227],[2.569257,49.062238],[2.571786,49.05974],[2.573282,49.058974],[2.572904,49.058652],[2.573058,49.058501],[2.573044,49.058495],[2.573075,49.058464],[2.572369,49.058152],[2.571929,49.057729],[2.571228,49.057],[2.570359,49.055963],[2.569501,49.054778],[2.569273,49.054418],[2.569031,49.054021],[2.568598,49.053222],[2.568397,49.052819],[2.568041,49.052013],[2.567606,49.050757],[2.567297,49.049492],[2.567171,49.048667],[2.567091,49.047855],[2.56708,49.046942],[2.567145,49.045789],[2.567315,49.044213],[2.567566,49.042188],[2.567767,49.041196],[2.567818,49.041197],[2.567827,49.04088],[2.568033,49.039217],[2.567933,49.039212],[2.568749,49.032613],[2.565917,49.032468],[2.564328,49.045288],[2.564124,49.047225],[2.564087,49.048129],[2.564107,49.04921],[2.564253,49.050457],[2.564424,49.051333],[2.564593,49.051979],[2.564839,49.052773],[2.565157,49.053611],[2.565486,49.054335],[2.565993,49.055338],[2.562286,49.053687],[2.535655,49.041925],[2.533915,49.041143],[2.532187,49.040344],[2.531018,49.039779],[2.52906,49.038773],[2.502954,49.024843],[2.501243,49.02397],[2.498731,49.022745],[2.497473,49.022179],[2.495912,49.021503],[2.494529,49.020945],[2.492222,49.020071],[2.49107,49.019659],[2.48829,49.018749],[2.485926,49.01804],[2.484572,49.017673],[2.482498,49.017143],[2.481204,49.016836],[2.479312,49.016414],[2.472528,49.014989],[2.466538,49.013686],[2.459831,49.012255],[2.457372,49.011696],[2.455368,49.011154],[2.454573,49.010919],[2.452891,49.01036],[2.451954,49.010032],[2.450617,49.009504],[2.447384,49.008177],[2.443346,49.006452],[2.44153,49.005632],[2.440922,49.005337],[2.439147,49.004041],[2.438354,49.003507],[2.437809,49.003169],[2.432957,49.000418],[2.431219,48.999459],[2.43058,48.999094],[2.429873,48.998664],[2.425765,48.996069],[2.423914,48.994819],[2.423025,48.994194],[2.421233,48.992868],[2.420119,48.992087],[2.418972,48.991364],[2.41764,48.990598],[2.416175,48.989812],[2.414819,48.98906],[2.412757,48.987797],[2.409944,48.986022],[2.407298,48.984319],[2.404814,48.982588],[2.400533,48.979557],[2.395601,48.976152],[2.39475,48.975529],[2.392645,48.974055],[2.390741,48.972735],[2.387246,48.970357],[2.385812,48.969345],[2.385683,48.969423],[2.385594,48.96936],[2.385557,48.969383],[2.385525,48.969361],[2.379506,48.973075],[2.381127,48.974209],[2.382994,48.975473],[2.385779,48.977422],[2.387254,48.978545],[2.388477,48.979402],[2.389478,48.980038],[2.390948,48.981046],[2.398574,48.98641],[2.401258,48.988252],[2.404629,48.990423],[2.40917,48.993304],[2.409216,48.993273],[2.409254,48.993298],[2.409209,48.993328],[2.423513,49.002419]]],[[[2.548582,49.00892],[2.549464,49.009108],[2.549478,49.009082],[2.549358,49.00905],[2.549464,49.009073],[2.549478,49.009046],[2.549407,49.009029],[2.552198,49.00492],[2.551766,49.004801],[2.550885,49.004598],[2.550156,49.004474],[2.550144,49.004506],[2.550104,49.0045],[2.548582,49.00892]]],[[[2.540877,49.008433],[2.547429,49.008776],[2.54785,49.008811],[2.548075,49.008845],[2.548086,49.008812],[2.548127,49.008818],[2.549649,49.004398],[2.548953,49.004303],[2.548071,49.00423],[2.541503,49.003886],[2.541499,49.003919],[2.54145,49.003916],[2.540877,49.008433]]],[[[2.535269,49.003851],[2.535825,49.008368],[2.537166,49.008293],[2.538242,49.008295],[2.538244,49.008262],[2.538295,49.008263],[2.538579,49.003735],[2.53798,49.003721],[2.536792,49.003734],[2.535322,49.003815],[2.535326,49.003848],[2.535269,49.003851]]],[[[2.515344,48.99203],[2.515166,48.992391],[2.515041,48.992737],[2.514806,48.993653],[2.514773,48.993879],[2.514736,48.994506],[2.514746,48.994889],[2.514825,48.995494],[2.515008,48.996164],[2.515295,48.996869],[2.515648,48.997521],[2.515798,48.997742],[2.516213,48.998264],[2.516808,48.998897],[2.517333,48.9994],[2.520419,49.002214],[2.520907,49.002698],[2.522446,49.004584],[2.522776,49.004938],[2.523277,49.005411],[2.523769,49.00581],[2.524312,49.006207],[2.52489,49.006574],[2.525289,49.006792],[2.526152,49.007213],[2.526696,49.007439],[2.527362,49.007673],[2.528099,49.007901],[2.529095,49.008139],[2.529621,49.008241],[2.530351,49.008351],[2.531373,49.008452],[2.532238,49.008491],[2.532793,49.008493],[2.53347,49.00848],[2.534529,49.008434],[2.534526,49.0084],[2.534582,49.008398],[2.534582,49.008398],[2.534055,49.003879],[2.533107,49.00392],[2.532482,49.003928],[2.531873,49.003892],[2.531402,49.003828],[2.530812,49.003697],[2.530218,49.003505],[2.529574,49.003202],[2.529308,49.003039],[2.52883,49.002673],[2.528457,49.002304],[2.52697,49.000476],[2.526454,48.999932],[2.5253,48.998858],[2.522974,48.996742],[2.52244,48.996224],[2.522057,48.995768],[2.52186,48.99537],[2.521785,48.995182],[2.5217,48.994873],[2.521674,48.994585],[2.521696,48.994199],[2.521858,48.993606],[2.522937,48.991774],[2.516446,48.990259],[2.516432,48.990286],[2.516384,48.990275],[2.515344,48.99203]]],[[[2.031089,49.069289],[2.031131,49.069305],[2.031108,49.069331],[2.038265,49.072049],[2.03886,49.071372],[2.039139,49.071102],[2.039731,49.070618],[2.04027,49.070242],[2.040835,49.069906],[2.041631,49.069522],[2.04227,49.069262],[2.043135,49.068976],[2.043629,49.068844],[2.044716,49.068598],[2.060661,49.065272],[2.061839,49.065008],[2.063212,49.064668],[2.064334,49.064362],[2.0653,49.064079],[2.067168,49.06348],[2.069157,49.062806],[2.069971,49.062496],[2.070808,49.062122],[2.071245,49.061894],[2.071536,49.061722],[2.072379,49.061176],[2.072862,49.060821],[2.073567,49.060204],[2.07398,49.059789],[2.075015,49.058639],[2.075729,49.057898],[2.076066,49.057584],[2.076426,49.057305],[2.076752,49.057093],[2.077426,49.056726],[2.07813,49.056432],[2.08307,49.054898],[2.083642,49.054703],[2.084243,49.054477],[2.085056,49.054121],[2.086,49.053633],[2.087002,49.053015],[2.087884,49.052415],[2.08856,49.0519],[2.089289,49.051382],[2.090026,49.050994],[2.090498,49.050804],[2.090765,49.050721],[2.090742,49.050689],[2.090786,49.050676],[2.090794,49.050691],[2.09089,49.050668],[2.090897,49.050678],[2.091334,49.050559],[2.092468,49.050305],[2.093687,49.0501],[2.097054,49.049442],[2.097087,49.049518],[2.097372,49.049464],[2.098766,49.049169],[2.10035,49.048768],[2.102476,49.048358],[2.103218,49.048162],[2.103889,49.047875],[2.104047,49.047774],[2.10451,49.04763],[2.104961,49.047614],[2.105835,49.047624],[2.10913,49.047838],[2.10972,49.047863],[2.110421,49.047873],[2.110988,49.047872],[2.111713,49.047841],[2.11301,49.047736],[2.115733,49.049104],[2.116879,49.049699],[2.117704,49.050201],[2.118596,49.05086],[2.119003,49.051201],[2.11941,49.051588],[2.12,49.052244],[2.120396,49.052782],[2.12079,49.053364],[2.120835,49.053351],[2.120853,49.053376],[2.120807,49.053389],[2.121,49.053679],[2.121046,49.053665],[2.121046,49.053665],[2.121,49.053679],[2.121129,49.053859],[2.121463,49.054279],[2.122091,49.054987],[2.121719,49.055128],[2.121865,49.055284],[2.122221,49.055126],[2.121872,49.05529],[2.122534,49.055896],[2.123066,49.056326],[2.123514,49.056599],[2.123711,49.056454],[2.123729,49.056465],[2.123574,49.056629],[2.124329,49.05695],[2.125423,49.057481],[2.125708,49.057639],[2.127313,49.058625],[2.127868,49.059017],[2.128382,49.059352],[2.128345,49.059385],[2.128688,49.05955],[2.129088,49.059787],[2.129503,49.060075],[2.129566,49.060036],[2.130086,49.060418],[2.130658,49.06086],[2.131049,49.061192],[2.131502,49.061616],[2.131925,49.06205],[2.132246,49.062421],[2.134397,49.065149],[2.134969,49.065781],[2.135518,49.066281],[2.136025,49.066701],[2.137358,49.067707],[2.13766,49.067921],[2.13812,49.06821],[2.138678,49.068519],[2.139277,49.068806],[2.139663,49.068969],[2.140388,49.069245],[2.141463,49.069576],[2.142181,49.069746],[2.143007,49.069905],[2.143878,49.070016],[2.144372,49.070062],[2.145302,49.070111],[2.145908,49.070118],[2.147056,49.070072],[2.147628,49.070022],[2.148174,49.069955],[2.149337,49.069787],[2.154782,49.068948],[2.155782,49.068808],[2.157035,49.068665],[2.158541,49.068541],[2.159987,49.068477],[2.160713,49.068465],[2.16217,49.068478],[2.163887,49.06856],[2.165294,49.068683],[2.166864,49.068883],[2.168397,49.069134],[2.169895,49.069436],[2.172068,49.069928],[2.173044,49.070167],[2.174079,49.070444],[2.176016,49.070991],[2.18703,49.07415],[2.187686,49.074352],[2.188423,49.074601],[2.189127,49.07486],[2.190381,49.075363],[2.191188,49.07572],[2.191618,49.075932],[2.192549,49.076466],[2.193144,49.07686],[2.193606,49.077208],[2.194038,49.077572],[2.194374,49.077886],[2.194773,49.078299],[2.195041,49.078601],[2.195434,49.079135],[2.195759,49.079658],[2.196091,49.080292],[2.198576,49.085385],[2.19848,49.085423],[2.198285,49.085542],[2.198127,49.085682],[2.198012,49.08584],[2.197945,49.086009],[2.197929,49.086184],[2.197962,49.086357],[2.198094,49.086727],[2.198399,49.087396],[2.199224,49.089077],[2.199483,49.089485],[2.199814,49.090125],[2.200036,49.090465],[2.200503,49.091395],[2.201657,49.093788],[2.201866,49.094181],[2.202838,49.096203],[2.205795,49.102224],[2.206082,49.102854],[2.206229,49.103228],[2.2064,49.103819],[2.206479,49.104217],[2.206528,49.10461],[2.206869,49.110468],[2.206943,49.110984],[2.207157,49.111862],[2.207354,49.112378],[2.207561,49.112819],[2.208266,49.114109],[2.208419,49.114435],[2.208739,49.11529],[2.208955,49.116459],[2.209414,49.120128],[2.209582,49.120889],[2.209782,49.121551],[2.210047,49.122144],[2.210255,49.122541],[2.210493,49.122927],[2.211007,49.123609],[2.21127,49.123924],[2.211855,49.124545],[2.21245,49.125083],[2.212871,49.125436],[2.213298,49.125762],[2.213969,49.126216],[2.214868,49.126735],[2.215924,49.127262],[2.220326,49.129352],[2.22113,49.129728],[2.222197,49.130171],[2.222854,49.130408],[2.225833,49.131409],[2.266059,49.144837],[2.266021,49.144885],[2.267695,49.145456],[2.267822,49.145514],[2.267821,49.1455],[2.269256,49.145993],[2.270739,49.14648],[2.271229,49.146662],[2.271287,49.14669],[2.271249,49.146724],[2.271489,49.146844],[2.271813,49.147072],[2.271874,49.147035],[2.271887,49.147044],[2.271826,49.147081],[2.272713,49.147685],[2.272752,49.14766],[2.273038,49.147871],[2.273374,49.148061],[2.27388,49.148263],[2.274224,49.148362],[2.274291,49.148262],[2.27545,49.148629],[2.275484,49.148581],[2.275833,49.148702],[2.275865,49.148663],[2.276868,49.149027],[2.277733,49.149257],[2.277764,49.1492],[2.278246,49.149302],[2.278766,49.149372],[2.2798,49.149557],[2.279825,49.149502],[2.280045,49.149549],[2.280543,49.149684],[2.28107,49.149851],[2.282654,49.150426],[2.283881,49.150775],[2.284059,49.151015],[2.2842,49.151263],[2.284338,49.151587],[2.284411,49.151857],[2.284452,49.15227],[2.284422,49.152645],[2.284355,49.152944],[2.284219,49.15329],[2.28396,49.153717],[2.283874,49.153837],[2.283612,49.154118],[2.283348,49.154352],[2.283074,49.154562],[2.28279,49.154742],[2.282434,49.154934],[2.281963,49.155136],[2.281555,49.155277],[2.28113,49.15539],[2.280362,49.155537],[2.271679,49.156825],[2.271098,49.156917],[2.270212,49.157083],[2.270467,49.157633],[2.270554,49.157616],[2.270568,49.157644],[2.271299,49.157511],[2.271971,49.157406],[2.28078,49.1561],[2.281394,49.155987],[2.281819,49.155872],[2.282412,49.155681],[2.282781,49.155533],[2.283226,49.155315],[2.283653,49.155051],[2.283858,49.154902],[2.284131,49.154689],[2.284408,49.154427],[2.284238,49.155239],[2.28411,49.156054],[2.284191,49.15606],[2.284148,49.156276],[2.284318,49.156291],[2.284316,49.156303],[2.285185,49.156381],[2.285195,49.156334],[2.285285,49.156342],[2.285297,49.156281],[2.285635,49.15631],[2.285639,49.156289],[2.285722,49.156297],[2.286087,49.154425],[2.28625,49.153708],[2.286331,49.153246],[2.286373,49.152866],[2.286371,49.152644],[2.286335,49.152482],[2.286224,49.152204],[2.286168,49.152214],[2.286223,49.152201],[2.286032,49.151705],[2.285865,49.151387],[2.285757,49.151226],[2.285544,49.15097],[2.285001,49.150453],[2.290858,49.152408],[2.291941,49.152737],[2.29291,49.152981],[2.293785,49.153157],[2.294741,49.153303],[2.295233,49.153361],[2.297109,49.153504],[2.305321,49.154076],[2.305326,49.154043],[2.305321,49.154076],[2.306962,49.154193],[2.340381,49.156506],[2.345955,49.156902],[2.346501,49.15695],[2.347311,49.157049],[2.348038,49.157157],[2.349351,49.157411],[2.350311,49.157651],[2.350655,49.157122],[2.350577,49.1571],[2.350597,49.157069],[2.349639,49.156832],[2.348257,49.156566],[2.34749,49.156451],[2.346659,49.15635],[2.346075,49.156298],[2.338865,49.155792],[2.33913,49.155648],[2.33933,49.155501],[2.339221,49.155439],[2.339397,49.155283],[2.33959,49.155019],[2.339685,49.154834],[2.339818,49.154467],[2.340197,49.153799],[2.339381,49.153589],[2.338986,49.154284],[2.338912,49.15444],[2.338837,49.154686],[2.338716,49.154897],[2.338577,49.155047],[2.338284,49.155257],[2.338031,49.155374],[2.337857,49.155435],[2.337558,49.155487],[2.337305,49.155512],[2.336973,49.155522],[2.336283,49.15551],[2.335834,49.15552],[2.332049,49.155267],[2.33204,49.155324],[2.307377,49.153609],[2.307384,49.153564],[2.30712,49.153546],[2.306971,49.153514],[2.306869,49.153463],[2.306827,49.153499],[2.303534,49.153296],[2.303527,49.153337],[2.303531,49.153296],[2.301874,49.15318],[2.301867,49.153223],[2.297209,49.152899],[2.295385,49.152761],[2.29493,49.152707],[2.294036,49.152571],[2.292838,49.152318],[2.291794,49.152027],[2.285204,49.149835],[2.285655,49.149279],[2.282882,49.148291],[2.282857,49.148322],[2.282809,49.148306],[2.282831,49.148275],[2.281668,49.147922],[2.282159,49.147322],[2.281906,49.147233],[2.281317,49.146957],[2.281293,49.146978],[2.281253,49.146964],[2.28128,49.146939],[2.281013,49.146815],[2.280477,49.14661],[2.280504,49.146577],[2.279427,49.146207],[2.279213,49.145387],[2.276889,49.145649],[2.27689,49.145585],[2.276185,49.145548],[2.276192,49.145437],[2.276045,49.145433],[2.276046,49.145353],[2.275386,49.145357],[2.274537,49.145423],[2.274356,49.145402],[2.273863,49.145064],[2.273676,49.145182],[2.273619,49.145173],[2.272719,49.14488],[2.272675,49.144937],[2.271456,49.144489],[2.271044,49.144307],[2.270585,49.144074],[2.269795,49.143546],[2.269506,49.143744],[2.268802,49.143458],[2.268794,49.143467],[2.268532,49.14332],[2.268341,49.142994],[2.268203,49.142615],[2.268142,49.1421],[2.268159,49.141861],[2.26823,49.141529],[2.268402,49.141094],[2.26866,49.140685],[2.272217,49.136853],[2.272621,49.136469],[2.272872,49.136264],[2.273259,49.135998],[2.273527,49.135836],[2.274132,49.135534],[2.281531,49.132529],[2.283052,49.131931],[2.283865,49.131558],[2.2843,49.131316],[2.28464,49.131093],[2.284971,49.130841],[2.285265,49.130583],[2.285509,49.130332],[2.285704,49.1301],[2.285944,49.129758],[2.286154,49.129406],[2.288999,49.123841],[2.289409,49.122993],[2.289683,49.122372],[2.289751,49.122173],[2.289888,49.121669],[2.289948,49.121338],[2.289977,49.120845],[2.289963,49.120414],[2.289914,49.120049],[2.289834,49.119714],[2.2897,49.119292],[2.289055,49.117706],[2.288905,49.117239],[2.28875,49.11653],[2.288109,49.112233],[2.287801,49.110409],[2.287717,49.109637],[2.287726,49.10914],[2.287759,49.108931],[2.287877,49.108502],[2.287961,49.108293],[2.288063,49.108075],[2.288224,49.107809],[2.288477,49.107464],[2.28889,49.107019],[2.28933,49.106658],[2.289785,49.106354],[2.290237,49.106111],[2.290922,49.105802],[2.291466,49.105624],[2.292248,49.105433],[2.292974,49.105308],[2.294864,49.105038],[2.295781,49.104852],[2.296308,49.104712],[2.296933,49.104489],[2.297454,49.104267],[2.299344,49.103321],[2.300027,49.103005],[2.300883,49.102705],[2.302158,49.102342],[2.302845,49.10211],[2.303508,49.101817],[2.303904,49.101614],[2.304312,49.101362],[2.304614,49.101153],[2.305058,49.100796],[2.305568,49.100271],[2.306201,49.099518],[2.306795,49.098856],[2.307161,49.098534],[2.307603,49.09823],[2.307887,49.098062],[2.308152,49.097918],[2.308623,49.097697],[2.308927,49.09758],[2.309574,49.097372],[2.310467,49.097164],[2.312116,49.096817],[2.312763,49.096644],[2.313066,49.096542],[2.313822,49.096234],[2.314168,49.096058],[2.314901,49.095624],[2.315277,49.095332],[2.315502,49.095134],[2.315964,49.094663],[2.316324,49.094175],[2.317338,49.092388],[2.317547,49.092118],[2.317788,49.091849],[2.318238,49.091443],[2.318831,49.091035],[2.319315,49.090766],[2.319828,49.090541],[2.321807,49.089758],[2.322211,49.089553],[2.323002,49.089077],[2.323261,49.088883],[2.323509,49.088678],[2.323953,49.088226],[2.324391,49.087667],[2.32456,49.087376],[2.324712,49.087053],[2.324881,49.086461],[2.324939,49.085957],[2.324924,49.085512],[2.324786,49.08491],[2.324358,49.083549],[2.324254,49.082969],[2.324239,49.082663],[2.324254,49.082402],[2.324296,49.08218],[2.324454,49.081686],[2.324613,49.081327],[2.324842,49.08096],[2.325102,49.080625],[2.325425,49.080288],[2.32593,49.079887],[2.326308,49.079649],[2.326749,49.079414],[2.327642,49.079002],[2.329687,49.078114],[2.330204,49.07785],[2.330636,49.077587],[2.331038,49.077308],[2.331322,49.077077],[2.331581,49.076825],[2.331868,49.076516],[2.332057,49.076269],[2.3322,49.076062],[2.332399,49.075713],[2.332632,49.075112],[2.332751,49.074462],[2.332756,49.074228],[2.332728,49.073871],[2.332654,49.073453],[2.332549,49.073097],[2.332353,49.072632],[2.331922,49.072001],[2.33039,49.070173],[2.329961,49.069701],[2.330684,49.070059],[2.335417,49.072273],[2.344154,49.076333],[2.349638,49.078903],[2.350446,49.07936],[2.350957,49.079693],[2.351652,49.080198],[2.352409,49.080866],[2.352833,49.081303],[2.353183,49.081725],[2.353922,49.082736],[2.355362,49.084816],[2.355765,49.085439],[2.356133,49.086058],[2.356432,49.086664],[2.356575,49.087043],[2.356782,49.087762],[2.357518,49.091674],[2.357796,49.093033],[2.357908,49.093417],[2.358191,49.094077],[2.358512,49.094634],[2.360101,49.096956],[2.360251,49.096912],[2.360101,49.096956],[2.360101,49.096956],[2.363039,49.101241],[2.363635,49.102067],[2.364058,49.102764],[2.364238,49.103116],[2.364374,49.103474],[2.36449,49.1039],[2.364564,49.104546],[2.364536,49.105076],[2.36447,49.105444],[2.36441,49.105648],[2.364095,49.106452],[2.362742,49.109572],[2.362629,49.109873],[2.362513,49.110317],[2.362465,49.110695],[2.36248,49.11121],[2.362593,49.111743],[2.362751,49.112162],[2.362926,49.1125],[2.363199,49.112908],[2.363569,49.113331],[2.36413,49.113834],[2.364697,49.114256],[2.369017,49.117325],[2.369445,49.117611],[2.369666,49.117738],[2.370142,49.117977],[2.370425,49.118096],[2.371111,49.118331],[2.37179,49.118506],[2.372727,49.118638],[2.373505,49.118693],[2.379384,49.118839],[2.380411,49.118851],[2.381095,49.118832],[2.381431,49.118808],[2.382469,49.118672],[2.383563,49.118421],[2.385696,49.117804],[2.386154,49.117707],[2.386719,49.117614],[2.387027,49.117575],[2.387778,49.117527],[2.389608,49.117512],[2.390173,49.117523],[2.390904,49.117578],[2.391342,49.117644],[2.39423,49.118223],[2.396775,49.118768],[2.398099,49.119006],[2.398764,49.119081],[2.399267,49.119114],[2.399795,49.119127],[2.40043,49.119118],[2.401351,49.119053],[2.401859,49.118987],[2.402454,49.118888],[2.403109,49.118746],[2.412903,49.115963],[2.413403,49.115857],[2.41376,49.115803],[2.414473,49.115753],[2.414806,49.115752],[2.415225,49.115764],[2.415784,49.115823],[2.416188,49.115881],[2.416724,49.116002],[2.417274,49.11618],[2.418407,49.116603],[2.421216,49.117689],[2.421396,49.117471],[2.417896,49.116119],[2.417236,49.115888],[2.416681,49.115735],[2.416223,49.115648],[2.415551,49.115573],[2.415527,49.115679],[2.415547,49.115572],[2.414808,49.115536],[2.414212,49.11555],[2.413702,49.11559],[2.413313,49.115649],[2.412793,49.115759],[2.403248,49.11848],[2.402357,49.118681],[2.401791,49.118776],[2.401302,49.118839],[2.40042,49.118902],[2.399795,49.118911],[2.399293,49.118899],[2.398809,49.118867],[2.398173,49.118795],[2.396871,49.118561],[2.394329,49.118017],[2.39142,49.117435],[2.390956,49.117365],[2.390198,49.117307],[2.389608,49.117296],[2.387763,49.117311],[2.386985,49.117361],[2.386654,49.117402],[2.386063,49.117499],[2.38558,49.117602],[2.383439,49.118221],[2.38264,49.118413],[2.382078,49.118512],[2.381391,49.118594],[2.381073,49.118617],[2.380404,49.118635],[2.379394,49.118623],[2.373521,49.118477],[2.372778,49.118425],[2.371879,49.118298],[2.371245,49.118134],[2.370598,49.117912],[2.370331,49.1178],[2.369873,49.117571],[2.369258,49.117179],[2.364939,49.114109],[2.364384,49.113697],[2.363841,49.11321],[2.363488,49.112806],[2.363232,49.112422],[2.363065,49.112099],[2.362916,49.111704],[2.362808,49.111191],[2.362793,49.110701],[2.36284,49.110342],[2.362951,49.109917],[2.363059,49.109629],[2.364497,49.106307],[2.36473,49.105698],[2.364794,49.105482],[2.364864,49.105091],[2.364892,49.104541],[2.364817,49.103876],[2.364696,49.103429],[2.364554,49.103057],[2.364368,49.102692],[2.36386,49.101839],[2.363569,49.10139],[2.360733,49.097275],[2.360399,49.096866],[2.359617,49.095728],[2.358814,49.094548],[2.358502,49.094008],[2.358228,49.093367],[2.358121,49.093001],[2.357844,49.091648],[2.357107,49.087731],[2.356897,49.086998],[2.356749,49.086608],[2.356441,49.085983],[2.35607,49.085359],[2.355662,49.084729],[2.353854,49.082131],[2.353476,49.081627],[2.353114,49.081191],[2.352679,49.080743],[2.3519,49.080056],[2.351197,49.079546],[2.35092,49.079363],[2.350083,49.07886],[2.349508,49.078566],[2.330875,49.069884],[2.329274,49.069101],[2.32881,49.068789],[2.328747,49.068652],[2.328635,49.068572],[2.327032,49.067796],[2.326479,49.067543],[2.326064,49.067308],[2.325789,49.067123],[2.325749,49.067147],[2.325788,49.067122],[2.325452,49.0669],[2.32496,49.06662],[2.324063,49.066168],[2.324114,49.066099],[2.323434,49.065829],[2.322879,49.065525],[2.322842,49.065501],[2.322885,49.065386],[2.322701,49.065347],[2.322413,49.065227],[2.322237,49.065123],[2.321884,49.064838],[2.321485,49.064335],[2.321376,49.06416],[2.321311,49.064178],[2.321273,49.064119],[2.321006,49.063456],[2.320888,49.062629],[2.320958,49.058941],[2.321001,49.052339],[2.32103,49.051821],[2.321085,49.051436],[2.321184,49.051045],[2.321259,49.050842],[2.323501,49.044871],[2.324779,49.041556],[2.326271,49.037546],[2.326428,49.037208],[2.326702,49.036765],[2.326942,49.036467],[2.327236,49.036162],[2.327499,49.035935],[2.327814,49.035695],[2.32808,49.035525],[2.328522,49.035284],[2.329151,49.035006],[2.329626,49.034837],[2.330231,49.03467],[2.331029,49.034487],[2.33687,49.033276],[2.34257,49.032113],[2.346878,49.031209],[2.347702,49.031005],[2.348125,49.03088],[2.348918,49.030628],[2.349525,49.030402],[2.350361,49.030046],[2.350739,49.029865],[2.351733,49.029339],[2.361639,49.02393],[2.362794,49.023273],[2.363232,49.022971],[2.36363,49.022663],[2.363936,49.02238],[2.364214,49.022062],[2.364527,49.021613],[2.364715,49.021276],[2.364896,49.02086],[2.36496,49.020651],[2.365037,49.020269],[2.365072,49.019792],[2.365045,49.019375],[2.365004,49.019152],[2.364849,49.018625],[2.363691,49.015534],[2.363571,49.015138],[2.363483,49.014644],[2.363465,49.014235],[2.363483,49.013787],[2.363614,49.013116],[2.363896,49.012345],[2.367736,49.003357],[2.368248,49.002221],[2.368925,49.000593],[2.369098,49.000118],[2.369232,48.999575],[2.369375,48.998811],[2.369401,48.998564],[2.370266,48.998585],[2.370268,48.99857],[2.370359,48.998574],[2.370366,48.998506],[2.370278,48.998502],[2.370281,48.998477],[2.370368,48.998479],[2.370394,48.997813],[2.370374,48.997456],[2.37026,48.996574],[2.370057,48.995728],[2.369898,48.995248],[2.369581,48.994461],[2.369404,48.994116],[2.369192,48.993736],[2.368716,48.993],[2.368292,48.992452],[2.367852,48.991945],[2.367572,48.99164],[2.367005,48.991093],[2.366558,48.990702],[2.366027,48.990272],[2.365126,48.989635],[2.364628,48.989324],[2.363528,48.988692],[2.358679,48.985993],[2.352019,48.982337],[2.347349,48.979721],[2.34091,48.976162],[2.340876,48.976188],[2.34091,48.976162],[2.337838,48.974457],[2.337549,48.974276],[2.336941,48.97386],[2.336764,48.973715],[2.336413,48.973374],[2.331516,48.968093],[2.331136,48.967714],[2.330775,48.967404],[2.330341,48.967085],[2.329877,48.96679],[2.329192,48.966442],[2.328557,48.96617],[2.326765,48.965523],[2.326223,48.965277],[2.325889,48.96507],[2.325577,48.964833],[2.325271,48.964515],[2.32511,48.964287],[2.324929,48.963929],[2.327305,48.962321],[2.328658,48.961379],[2.33151,48.961814],[2.332223,48.961899],[2.333159,48.961983],[2.334251,48.96207],[2.335264,48.962117],[2.337845,48.962177],[2.337848,48.962131],[2.337901,48.962132],[2.338149,48.957603],[2.337996,48.957599],[2.338001,48.957499],[2.335604,48.957445],[2.334884,48.957414],[2.333235,48.957276],[2.332462,48.957175],[2.329442,48.956707],[2.329403,48.9568],[2.329358,48.956793],[2.329345,48.956828],[2.329305,48.956822],[2.32826,48.959773],[2.326514,48.958677],[2.326501,48.957427],[2.326531,48.956612],[2.326561,48.956613],[2.326562,48.956585],[2.326492,48.956583],[2.326492,48.956527],[2.326287,48.956528],[2.326284,48.95645],[2.325438,48.956479],[2.322633,48.956679],[2.321812,48.956719],[2.320986,48.956701],[2.31971,48.956584],[2.319703,48.956618],[2.319616,48.95661],[2.319589,48.956704],[2.319509,48.956697],[2.318581,48.961187],[2.31921,48.961248],[2.317335,48.962538],[2.316001,48.963426],[2.313413,48.965208],[2.311576,48.96644],[2.310447,48.967223],[2.307722,48.969053],[2.306752,48.969744],[2.304698,48.971128],[2.302079,48.972862],[2.300457,48.973856],[2.299861,48.974177],[2.298837,48.974696],[2.297982,48.975094],[2.296632,48.975656],[2.295394,48.976122],[2.294088,48.97658],[2.293345,48.976811],[2.292895,48.976931],[2.2919,48.977171],[2.290208,48.977513],[2.288455,48.977819],[2.287589,48.977944],[2.286533,48.978076],[2.285686,48.97816],[2.283921,48.97828],[2.28303,48.97831],[2.283357,48.977824],[2.28351,48.977532],[2.28371,48.977031],[2.283846,48.976478],[2.283889,48.976139],[2.283894,48.975635],[2.283857,48.97529],[2.283753,48.974828],[2.283625,48.974455],[2.283514,48.974208],[2.283356,48.973909],[2.283064,48.973484],[2.282732,48.973077],[2.281551,48.971759],[2.280528,48.970668],[2.280328,48.970408],[2.280162,48.970148],[2.28002,48.969853],[2.279893,48.969469],[2.279827,48.969125],[2.279817,48.968957],[2.279874,48.968421],[2.280059,48.967828],[2.280255,48.967477],[2.28074,48.966894],[2.280911,48.966733],[2.281498,48.966287],[2.281849,48.966071],[2.282405,48.96579],[2.283289,48.965429],[2.284053,48.965177],[2.286344,48.964498],[2.291532,48.962895],[2.290352,48.961233],[2.290291,48.961252],[2.29027,48.961222],[2.285158,48.962801],[2.282821,48.963495],[2.281889,48.963804],[2.280818,48.964242],[2.279926,48.964697],[2.279461,48.964987],[2.278858,48.965431],[2.278609,48.965641],[2.278315,48.965925],[2.27771,48.966651],[2.277546,48.966903],[2.277328,48.967322],[2.27714,48.967863],[2.277055,48.96821],[2.27699,48.96875],[2.276995,48.969236],[2.277049,48.969561],[2.277101,48.969803],[2.277279,48.970335],[2.277376,48.970559],[2.277619,48.970994],[2.278043,48.971568],[2.279102,48.972701],[2.279904,48.973597],[2.280277,48.974013],[2.280633,48.974461],[2.280876,48.974917],[2.280968,48.975186],[2.28104,48.975515],[2.281064,48.975853],[2.28103,48.976245],[2.280929,48.976657],[2.280787,48.977007],[2.280605,48.977319],[2.280267,48.977747],[2.279918,48.978073],[2.279666,48.978277],[2.277826,48.978212],[2.277573,48.978144],[2.276927,48.97806],[2.276269,48.978058],[2.275467,48.978107],[2.271459,48.978255],[2.270605,48.978324],[2.269729,48.978429],[2.268876,48.978575],[2.267348,48.978897],[2.266823,48.97871],[2.266366,48.978487],[2.265989,48.978269],[2.265516,48.977922],[2.265168,48.977571],[2.26484,48.977162],[2.264633,48.976816],[2.264524,48.97659],[2.264423,48.976325],[2.264391,48.976189],[2.26435,48.975819],[2.26439,48.975266],[2.264768,48.973447],[2.264923,48.972565],[2.265483,48.969877],[2.265514,48.968907],[2.265466,48.968128],[2.265295,48.967176],[2.265126,48.966645],[2.264827,48.965961],[2.264459,48.965275],[2.262879,48.962901],[2.260091,48.958794],[2.25893,48.957021],[2.257638,48.955098],[2.257962,48.954689],[2.258209,48.954329],[2.258385,48.954036],[2.258581,48.95364],[2.258741,48.953234],[2.2589,48.952731],[2.258965,48.952457],[2.259056,48.951885],[2.259143,48.95189],[2.259155,48.951792],[2.259207,48.951794],[2.259205,48.951823],[2.259233,48.951588],[2.259646,48.9512],[2.259968,48.950937],[2.260714,48.950398],[2.261169,48.950166],[2.261382,48.95008],[2.261828,48.949946],[2.262395,48.949847],[2.26294,48.949815],[2.265824,48.949884],[2.266377,48.94992],[2.267047,48.950039],[2.268252,48.950444],[2.269763,48.950979],[2.271017,48.95137],[2.276916,48.952902],[2.277789,48.953092],[2.278902,48.95327],[2.287676,48.954375],[2.288772,48.954501],[2.291256,48.954734],[2.29222,48.950247],[2.292174,48.950243],[2.292181,48.95021],[2.289844,48.94999],[2.288919,48.949884],[2.280261,48.948793],[2.279824,48.948725],[2.279358,48.948629],[2.27373,48.947168],[2.272926,48.946916],[2.270362,48.946023],[2.269783,48.945844],[2.269149,48.945684],[2.267985,48.945477],[2.266979,48.945367],[2.266169,48.945324],[2.263784,48.945261],[2.264366,48.944503],[2.2642,48.944447],[2.264208,48.944437],[2.256885,48.941941],[2.256842,48.941995],[2.256797,48.94198],[2.255742,48.943339],[2.255778,48.943361],[2.255736,48.943347],[2.255177,48.944075],[2.254077,48.945405],[2.253151,48.946627],[2.252246,48.947882],[2.252308,48.947901],[2.252263,48.947965],[2.2522,48.947946],[2.251673,48.948742],[2.251365,48.949292],[2.251184,48.949695],[2.250999,48.95027],[2.250324,48.95068],[2.24984,48.951022],[2.249331,48.951041],[2.24855,48.951033],[2.24809,48.951023],[2.247382,48.950982],[2.246744,48.950908],[2.245675,48.950736],[2.240982,48.949736],[2.238292,48.949141],[2.238461,48.948807],[2.236104,48.948292],[2.236144,48.948197],[2.235104,48.948007],[2.233823,48.947828],[2.233535,48.947775],[2.232969,48.947597],[2.231636,48.94723],[2.231617,48.94726],[2.231553,48.947244],[2.231439,48.947434],[2.22985,48.947283],[2.224699,48.946146],[2.224038,48.94599],[2.223236,48.945779],[2.219484,48.9447],[2.207036,48.941094],[2.20428,48.945247],[2.204776,48.94539],[2.204755,48.94542],[2.211211,48.947287],[2.211017,48.947585],[2.211046,48.947593],[2.211007,48.947653],[2.213167,48.94826],[2.213047,48.948447],[2.21598,48.949274],[2.216534,48.949443],[2.215719,48.949856],[2.214492,48.950597],[2.213903,48.951008],[2.21325,48.951514],[2.208193,48.955763],[2.205859,48.957703],[2.20338,48.959816],[2.202274,48.960719],[2.20174,48.961108],[2.201153,48.961465],[2.20039,48.961859],[2.195541,48.964143],[2.194651,48.964554],[2.193382,48.965098],[2.191484,48.965939],[2.188669,48.967281],[2.187514,48.967897],[2.187092,48.968149],[2.187149,48.96819],[2.187091,48.96815],[2.18586,48.968951],[2.183873,48.97054],[2.180384,48.973567],[2.179744,48.974201],[2.17913,48.974919],[2.178565,48.975693],[2.17742,48.977523],[2.176804,48.978407],[2.176526,48.978732],[2.175995,48.979252],[2.175638,48.979505],[2.175132,48.979908],[2.174765,48.980153],[2.174069,48.980522],[2.173435,48.980808],[2.169724,48.982182],[2.168712,48.982617],[2.168122,48.982899],[2.167637,48.983155],[2.166792,48.983643],[2.162431,48.986526],[2.16189,48.986871],[2.161407,48.987139],[2.160627,48.98753],[2.156307,48.989582],[2.155356,48.99001],[2.154859,48.990188],[2.15416,48.990386],[2.15363,48.990511],[2.152645,48.990699],[2.120924,48.9961],[2.122973,49.001361],[2.123049,49.001348],[2.123061,49.00138],[2.154747,48.995985],[2.156088,48.995731],[2.157046,48.99551],[2.157792,48.995311],[2.158438,48.99512],[2.158969,48.994944],[2.159772,48.994639],[2.160333,48.994399],[2.162068,48.993584],[2.162117,48.993656],[2.162259,48.993614],[2.163032,48.993318],[2.163782,48.992953],[2.163765,48.992937],[2.164119,48.992769],[2.164004,48.992663],[2.164158,48.992591],[2.164278,48.992669],[2.164463,48.992536],[2.164377,48.992488],[2.166242,48.991589],[2.166707,48.991345],[2.167563,48.990862],[2.169003,48.989932],[2.172187,48.987813],[2.172497,48.987614],[2.173012,48.987321],[2.173418,48.987119],[2.174051,48.986846],[2.177347,48.985637],[2.177969,48.985386],[2.178908,48.984963],[2.179482,48.984678],[2.180139,48.984321],[2.180733,48.983955],[2.181389,48.983501],[2.181816,48.983157],[2.182508,48.982643],[2.183122,48.98208],[2.183802,48.981367],[2.184233,48.980848],[2.184624,48.980312],[2.185067,48.979649],[2.1861,48.977987],[2.186554,48.977365],[2.186765,48.977119],[2.187118,48.976764],[2.19042,48.9739],[2.191966,48.972705],[2.192531,48.972352],[2.193329,48.971913],[2.195478,48.970886],[2.19813,48.969646],[2.198495,48.96947],[2.198468,48.969443],[2.198497,48.969469],[2.205247,48.966291],[2.205946,48.965939],[2.20684,48.965449],[2.207574,48.964996],[2.207861,48.964799],[2.208628,48.964235],[2.209312,48.963685],[2.21241,48.961058],[2.218123,48.956283],[2.218661,48.955813],[2.219645,48.954997],[2.220311,48.954494],[2.22111,48.954012],[2.221526,48.953808],[2.221929,48.953625],[2.222752,48.953318],[2.223532,48.953094],[2.224246,48.952922],[2.22469,48.952832],[2.225444,48.952723],[2.226119,48.952663],[2.226872,48.952631],[2.227522,48.952638],[2.228097,48.952663],[2.228731,48.95272],[2.229509,48.952831],[2.230125,48.952952],[2.231004,48.953159],[2.231321,48.953256],[2.23234,48.953623],[2.23725,48.955746],[2.241869,48.957672],[2.242558,48.957921],[2.24356,48.958219],[2.244428,48.958415],[2.2451,48.958534],[2.245592,48.958604],[2.246127,48.958666],[2.246856,48.958723],[2.24769,48.958752],[2.248374,48.95875],[2.248975,48.958722],[2.249818,48.958654],[2.250477,48.958568],[2.251117,48.958467],[2.251783,48.958327],[2.252547,48.958124],[2.253012,48.95798],[2.253592,48.957776],[2.254235,48.95751],[2.254663,48.957306],[2.255224,48.957016],[2.255657,48.956762],[2.2575,48.959554],[2.260284,48.963655],[2.261835,48.965985],[2.262136,48.966551],[2.262384,48.967125],[2.262492,48.967464],[2.262636,48.968257],[2.262677,48.968908],[2.262652,48.969757],[2.262111,48.97232],[2.261956,48.973199],[2.261571,48.975056],[2.261517,48.975603],[2.261531,48.976172],[2.261625,48.976639],[2.261794,48.977098],[2.262018,48.977544],[2.26236,48.978075],[2.262729,48.978525],[2.263193,48.979001],[2.263693,48.979395],[2.264311,48.979789],[2.263124,48.980213],[2.260315,48.981305],[2.258308,48.982061],[2.258321,48.982095],[2.258296,48.982066],[2.25399,48.983676],[2.24373,48.987534],[2.238105,48.989666],[2.230112,48.992626],[2.216666,48.997706],[2.215413,48.99816],[2.211138,48.999768],[2.210313,49.000063],[2.206296,49.001583],[2.203662,49.002548],[2.202082,49.003163],[2.199915,49.003973],[2.198561,49.004463],[2.198595,49.004504],[2.198529,49.004529],[2.198493,49.004488],[2.197621,49.004792],[2.195588,49.005432],[2.19464,49.00572],[2.192926,49.006204],[2.192963,49.00626],[2.192925,49.006204],[2.190717,49.006817],[2.184129,49.008564],[2.182339,49.009072],[2.179285,49.009975],[2.158847,49.015538],[2.149991,49.017927],[2.148042,49.018526],[2.147107,49.018847],[2.146325,49.019143],[2.144797,49.019769],[2.141923,49.021151],[2.139297,49.022439],[2.135505,49.024331],[2.13477,49.024727],[2.133794,49.025325],[2.133012,49.025867],[2.132381,49.02635],[2.131478,49.027147],[2.127261,49.031012],[2.123865,49.034168],[2.123631,49.03399],[2.123308,49.033779],[2.122824,49.033518],[2.12214,49.033227],[2.121427,49.033012],[2.12082,49.032873],[2.107501,49.030189],[2.106608,49.029966],[2.105912,49.029765],[2.105636,49.029679],[2.104858,49.029391],[2.104625,49.028408],[2.104462,49.027837],[2.104339,49.027465],[2.10407,49.026815],[2.103765,49.026208],[2.103464,49.025697],[2.103007,49.025024],[2.102645,49.024586],[2.102036,49.023932],[2.101437,49.02336],[2.092934,49.015519],[2.09208,49.014811],[2.091238,49.01423],[2.091201,49.014255],[2.091161,49.01423],[2.090034,49.015011],[2.08929,49.015492],[2.089125,49.015383],[2.091033,49.014094],[2.089991,49.013414],[2.089852,49.013304],[2.089719,49.013151],[2.089674,49.013165],[2.089667,49.013155],[2.086779,49.014042],[2.086238,49.013745],[2.085274,49.014504],[2.082185,49.015452],[2.082675,49.01607],[2.083094,49.016486],[2.08342,49.016766],[2.084092,49.017276],[2.084791,49.017751],[2.084848,49.017714],[2.085273,49.017985],[2.087134,49.016727],[2.087263,49.016805],[2.086009,49.017617],[2.085307,49.017992],[2.085479,49.01813],[2.085457,49.018143],[2.085474,49.018167],[2.08613,49.01865],[2.089184,49.021467],[2.088703,49.021143],[2.08822,49.020865],[2.08714,49.020326],[2.085987,49.019706],[2.081385,49.017006],[2.081018,49.016763],[2.080701,49.016493],[2.080478,49.016266],[2.080197,49.01591],[2.080048,49.015667],[2.079828,49.015174],[2.07973,49.014729],[2.079719,49.014248],[2.079837,49.013615],[2.080064,49.012781],[2.083808,49.014843],[2.085595,49.013435],[2.085533,49.013401],[2.085566,49.013375],[2.07975,49.010173],[2.079559,49.009836],[2.079257,49.009409],[2.079053,49.009164],[2.078667,49.008762],[2.078411,49.008534],[2.07807,49.008264],[2.076786,49.007331],[2.076561,49.007138],[2.076304,49.006879],[2.076073,49.00659],[2.075962,49.006418],[2.075764,49.006047],[2.075626,49.005661],[2.074901,49.002704],[2.074693,49.001636],[2.071924,49.001853],[2.07193,49.001887],[2.071879,49.00189],[2.071879,49.00189],[2.072083,49.002943],[2.072364,49.004873],[2.072498,49.005488],[2.072603,49.005863],[2.072729,49.006239],[2.072991,49.006895],[2.073429,49.007759],[2.073793,49.008343],[2.073972,49.008594],[2.074332,49.009081],[2.074626,49.009427],[2.076081,49.010986],[2.076321,49.011266],[2.076531,49.011546],[2.076627,49.011708],[2.076823,49.012116],[2.076951,49.01267],[2.076958,49.013135],[2.076861,49.014341],[2.076884,49.014737],[2.076943,49.015135],[2.077012,49.015427],[2.077155,49.015848],[2.077391,49.016318],[2.077659,49.016745],[2.077981,49.017153],[2.078406,49.017592],[2.078908,49.018011],[2.079461,49.018385],[2.084199,49.021161],[2.085168,49.021682],[2.086415,49.022304],[2.086758,49.0225],[2.087175,49.022786],[2.08739,49.022968],[2.087666,49.023242],[2.087995,49.023653],[2.088514,49.024514],[2.08929,49.025937],[2.089697,49.026849],[2.089819,49.027279],[2.089861,49.027556],[2.089854,49.027965],[2.08982,49.028203],[2.089724,49.028552],[2.089617,49.028809],[2.08936,49.029236],[2.089148,49.029513],[2.088895,49.02978],[2.088518,49.030105],[2.088066,49.030405],[2.087796,49.030563],[2.086619,49.031179],[2.088354,49.032615],[2.088744,49.032411],[2.088782,49.032442],[2.089781,49.031907],[2.090215,49.031645],[2.090808,49.031215],[2.091417,49.030666],[2.091805,49.030212],[2.092128,49.029738],[2.092379,49.029262],[2.092509,49.028924],[2.092593,49.028635],[2.092672,49.028247],[2.092695,49.028016],[2.092705,49.027659],[2.092674,49.027252],[2.092535,49.026631],[2.092263,49.025935],[2.091794,49.024981],[2.090855,49.02331],[2.090498,49.022762],[2.09027,49.022471],[2.093902,49.025798],[2.094928,49.026764],[2.095275,49.027125],[2.095571,49.027479],[2.095825,49.027862],[2.096093,49.028344],[2.096287,49.028835],[2.096377,49.029119],[2.097057,49.031949],[2.097649,49.03461],[2.097871,49.035463],[2.098281,49.036632],[2.100226,49.041737],[2.100558,49.042658],[2.100575,49.042731],[2.100551,49.042804],[2.100078,49.042907],[2.097695,49.043345],[2.096317,49.043458],[2.095631,49.043535],[2.095621,49.043492],[2.095556,49.043499],[2.095548,49.043467],[2.094906,49.043546],[2.093279,49.043861],[2.092243,49.044094],[2.09181,49.044206],[2.091112,49.044444],[2.090471,49.044733],[2.090002,49.044975],[2.090015,49.044987],[2.089787,49.045115],[2.088333,49.045462],[2.08835,49.045494],[2.088288,49.045509],[2.08827,49.045478],[2.088244,49.045484],[2.088263,49.045516],[2.08809,49.045558],[2.088072,49.04553],[2.087251,49.045764],[2.086433,49.046039],[2.08574,49.046311],[2.08509,49.046602],[2.084559,49.046865],[2.083761,49.0473],[2.082929,49.047843],[2.082368,49.048243],[2.081783,49.048702],[2.081202,49.049099],[2.080472,49.04955],[2.080271,49.049655],[2.079745,49.049874],[2.079102,49.050091],[2.074597,49.051482],[2.073889,49.051726],[2.072605,49.052268],[2.072133,49.052502],[2.071381,49.05291],[2.070965,49.053161],[2.07026,49.053626],[2.069893,49.053886],[2.069473,49.054226],[2.068459,49.055203],[2.066977,49.056849],[2.066586,49.057229],[2.066413,49.057367],[2.066082,49.05759],[2.065574,49.057853],[2.063552,49.058564],[2.061604,49.059183],[2.061029,49.059351],[2.058936,49.059887],[2.058088,49.06008],[2.056949,49.060317],[2.055123,49.060672],[2.048383,49.062108],[2.041464,49.063544],[2.039933,49.06392],[2.038616,49.064333],[2.037546,49.064731],[2.036399,49.065235],[2.035418,49.065752],[2.034227,49.066483],[2.03317,49.06725],[2.032788,49.067557],[2.032381,49.067915],[2.031903,49.068373],[2.031089,49.069289]],[[2.201629,49.087063],[2.201777,49.086804],[2.20211,49.08634],[2.202586,49.08585],[2.202861,49.085629],[2.203173,49.0854],[2.203522,49.085193],[2.204041,49.084918],[2.205494,49.084203],[2.20625,49.08377],[2.20661,49.083483],[2.206893,49.083213],[2.20716,49.082917],[2.20737,49.082633],[2.207566,49.082293],[2.207774,49.081734],[2.207835,49.081428],[2.207864,49.080992],[2.207836,49.08068],[2.207729,49.080257],[2.207641,49.08003],[2.20749,49.079731],[2.207091,49.079148],[2.204729,49.076087],[2.202275,49.072951],[2.201993,49.072594],[2.201723,49.072293],[2.201428,49.071998],[2.201098,49.071729],[2.200713,49.071455],[2.198877,49.070244],[2.198377,49.069881],[2.198105,49.069643],[2.197654,49.069155],[2.197481,49.068895],[2.197245,49.068428],[2.195604,49.064446],[2.195129,49.063442],[2.194644,49.062592],[2.193634,49.061014],[2.192989,49.059951],[2.191083,49.057],[2.19093,49.056715],[2.190838,49.056479],[2.190734,49.056026],[2.190734,49.055514],[2.190864,49.055031],[2.190994,49.054723],[2.191214,49.05437],[2.191418,49.054122],[2.191587,49.053957],[2.191878,49.05373],[2.192164,49.053536],[2.194253,49.052276],[2.195172,49.051633],[2.195493,49.051367],[2.195865,49.051012],[2.196126,49.050705],[2.196306,49.050434],[2.196541,49.050014],[2.197026,49.048978],[2.197134,49.048709],[2.19725,49.04831],[2.197331,49.047773],[2.197624,49.044836],[2.197699,49.044522],[2.197837,49.044156],[2.197986,49.043855],[2.198176,49.043544],[2.198675,49.042977],[2.198999,49.042691],[2.199322,49.042459],[2.199699,49.042224],[2.200108,49.042002],[2.206417,49.038842],[2.206931,49.038563],[2.20745,49.038256],[2.207954,49.037927],[2.208432,49.037576],[2.209066,49.037045],[2.209565,49.036576],[2.218493,49.027396],[2.218687,49.027223],[2.219421,49.026707],[2.219804,49.026486],[2.220393,49.0262],[2.229024,49.022312],[2.238025,49.018234],[2.240171,49.017299],[2.240556,49.017116],[2.240526,49.017089],[2.240556,49.017116],[2.241124,49.016846],[2.241889,49.016419],[2.242629,49.015925],[2.245522,49.013764],[2.246369,49.013064],[2.246812,49.012639],[2.247143,49.012272],[2.247732,49.011569],[2.261993,48.993872],[2.262572,48.9931],[2.262777,48.992789],[2.263047,48.992324],[2.26339,48.991542],[2.26432,48.988473],[2.26538,48.98485],[2.266262,48.984566],[2.267297,48.984208],[2.268065,48.983928],[2.269145,48.983506],[2.269266,48.983476],[2.26941,48.983622],[2.26938,48.983633],[2.269399,48.983658],[2.26991,48.983482],[2.270364,48.98335],[2.270969,48.983202],[2.271374,48.98313],[2.271923,48.983072],[2.273909,48.98298],[2.276687,48.982823],[2.277797,48.982818],[2.279914,48.982899],[2.281514,48.98293],[2.282193,48.98293],[2.283594,48.982901],[2.284885,48.982846],[2.285934,48.98278],[2.287211,48.982669],[2.288272,48.982558],[2.290126,48.982312],[2.292006,48.982004],[2.293027,48.98182],[2.294176,48.981574],[2.294915,48.981397],[2.295654,48.981196],[2.29732,48.980676],[2.298755,48.980171],[2.300193,48.97962],[2.301206,48.979208],[2.302415,48.97868],[2.303408,48.978202],[2.304951,48.977381],[2.305833,48.976871],[2.307219,48.975968],[2.307156,48.975928],[2.30722,48.975967],[2.31173,48.972923],[2.312699,48.972232],[2.31542,48.970405],[2.316529,48.969635],[2.318412,48.968373],[2.321011,48.966582],[2.322248,48.96576],[2.322769,48.965395],[2.323075,48.965732],[2.323358,48.965999],[2.323858,48.966378],[2.324355,48.966684],[2.324727,48.966877],[2.325222,48.967096],[2.32714,48.967789],[2.327532,48.967956],[2.327964,48.96817],[2.328275,48.968366],[2.328569,48.968579],[2.328802,48.968777],[2.32911,48.969082],[2.329747,48.969758],[2.334036,48.974394],[2.334524,48.974862],[2.335005,48.975241],[2.335269,48.975423],[2.335931,48.975836],[2.336773,48.97631],[2.341364,48.978863],[2.345527,48.981153],[2.350195,48.983768],[2.356863,48.987428],[2.361687,48.990113],[2.362738,48.990717],[2.363142,48.990971],[2.363869,48.991485],[2.364704,48.992187],[2.365165,48.99263],[2.365394,48.992878],[2.365785,48.993329],[2.366192,48.993891],[2.366234,48.99388],[2.36624,48.993889],[2.366198,48.993901],[2.366492,48.994406],[2.366727,48.994959],[2.367177,48.996481],[2.367356,48.997234],[2.367419,48.997627],[2.367466,48.998121],[2.367466,48.99852],[2.368422,48.998541],[2.368415,48.998679],[2.368513,48.998681],[2.368415,48.99868],[2.368389,48.999043],[2.368312,48.999487],[2.368193,48.999992],[2.368029,49.000441],[2.367357,49.002058],[2.366845,49.003191],[2.363005,49.012182],[2.36278,49.012773],[2.362648,49.013217],[2.362561,49.013739],[2.362539,49.014228],[2.362559,49.014681],[2.362604,49.014987],[2.362713,49.015449],[2.362789,49.015672],[2.363944,49.018753],[2.364087,49.019236],[2.364139,49.019611],[2.364146,49.019915],[2.364095,49.020343],[2.363997,49.020713],[2.363732,49.021282],[2.363397,49.021775],[2.363257,49.021941],[2.362892,49.022295],[2.362549,49.02256],[2.36216,49.02283],[2.36105,49.023461],[2.358325,49.024938],[2.352922,49.027908],[2.350184,49.029377],[2.349424,49.029726],[2.348708,49.030009],[2.348156,49.030199],[2.347354,49.030441],[2.346578,49.030633],[2.342292,49.031533],[2.336591,49.032695],[2.330742,49.033908],[2.329905,49.034101],[2.329256,49.034279],[2.328666,49.034488],[2.327981,49.03479],[2.32746,49.035073],[2.327156,49.035267],[2.326783,49.03555],[2.32647,49.03582],[2.326145,49.036157],[2.325877,49.036488],[2.325558,49.037001],[2.325373,49.037397],[2.320362,49.050691],[2.320275,49.050928],[2.320168,49.05135],[2.320106,49.05178],[2.320075,49.05233],[2.320032,49.058937],[2.320007,49.06083],[2.319956,49.062412],[2.319963,49.062896],[2.320006,49.063338],[2.320096,49.063809],[2.32032,49.064322],[2.320659,49.064863],[2.32089,49.065161],[2.321126,49.065419],[2.321416,49.065683],[2.321936,49.066094],[2.322443,49.066416],[2.322979,49.066702],[2.322919,49.066758],[2.323315,49.066944],[2.323824,49.067242],[2.323612,49.067457],[2.324249,49.067729],[2.324561,49.067842],[2.324883,49.067925],[2.325646,49.068058],[2.325975,49.068156],[2.32757,49.068913],[2.328301,49.069357],[2.328511,49.069515],[2.328742,49.069703],[2.32918,49.070109],[2.329664,49.070699],[2.32975,49.070671],[2.331103,49.072286],[2.33147,49.072816],[2.331643,49.073227],[2.331736,49.073536],[2.331803,49.073914],[2.331826,49.074424],[2.331724,49.07499],[2.331624,49.075276],[2.331436,49.075678],[2.331066,49.076211],[2.330807,49.076491],[2.330566,49.076725],[2.330351,49.076899],[2.329995,49.077147],[2.32959,49.077394],[2.329133,49.077626],[2.327117,49.078501],[2.326205,49.078921],[2.325707,49.079186],[2.325265,49.079462],[2.325028,49.079638],[2.324658,49.079946],[2.3243,49.080321],[2.323989,49.08072],[2.32375,49.081105],[2.323654,49.081297],[2.323426,49.081912],[2.323329,49.082365],[2.323312,49.082672],[2.323329,49.083],[2.32338,49.083349],[2.323513,49.083889],[2.323954,49.085317],[2.324019,49.085747],[2.323959,49.0864],[2.323902,49.086621],[2.323809,49.086914],[2.323555,49.087402],[2.323146,49.087927],[2.322746,49.088332],[2.322346,49.088647],[2.322102,49.088799],[2.321604,49.089092],[2.321292,49.089252],[2.319339,49.090024],[2.318771,49.090273],[2.31819,49.090595],[2.317903,49.090781],[2.317511,49.091065],[2.316998,49.09153],[2.31674,49.091818],[2.316502,49.092126],[2.316271,49.092502],[2.315463,49.09395],[2.315147,49.094377],[2.314755,49.094774],[2.314242,49.095196],[2.313573,49.095591],[2.313273,49.095743],[2.312626,49.096006],[2.31238,49.09609],[2.311805,49.096244],[2.310174,49.096587],[2.309203,49.096814],[2.308468,49.097051],[2.308117,49.097187],[2.30757,49.097444],[2.306972,49.097784],[2.306751,49.09793],[2.306464,49.098132],[2.306164,49.098386],[2.306005,49.098537],[2.305399,49.099213],[2.304768,49.099963],[2.304533,49.100219],[2.304183,49.100544],[2.303665,49.100926],[2.303314,49.101145],[2.302593,49.101497],[2.302392,49.101578],[2.30176,49.101792],[2.30022,49.10224],[2.29954,49.102487],[2.298786,49.102835],[2.29692,49.10377],[2.296456,49.103967],[2.295894,49.104167],[2.295284,49.10432],[2.294631,49.104448],[2.292761,49.104716],[2.291968,49.104853],[2.291103,49.105064],[2.290473,49.10527],[2.289682,49.105624],[2.289142,49.105915],[2.288654,49.106241],[2.288396,49.106445],[2.288119,49.10668],[2.287837,49.106973],[2.287649,49.10719],[2.287369,49.107573],[2.287182,49.107884],[2.286977,49.108355],[2.286891,49.108633],[2.286802,49.10909],[2.286791,49.109669],[2.286878,49.110468],[2.287188,49.1123],[2.28783,49.116605],[2.287991,49.117341],[2.28815,49.11784],[2.288612,49.118955],[2.288798,49.119435],[2.28892,49.119817],[2.288992,49.120115],[2.289036,49.120439],[2.28905,49.120832],[2.289025,49.121279],[2.288971,49.121576],[2.288844,49.122046],[2.288523,49.122814],[2.288119,49.123649],[2.285286,49.129192],[2.285095,49.129512],[2.284869,49.129835],[2.284511,49.130229],[2.284256,49.130453],[2.283969,49.130672],[2.283683,49.130861],[2.283299,49.131076],[2.282565,49.131413],[2.281046,49.13201],[2.273622,49.135025],[2.272908,49.135382],[2.272598,49.135571],[2.272163,49.135872],[2.271874,49.136108],[2.271427,49.136534],[2.267941,49.140272],[2.267715,49.140576],[2.267525,49.140895],[2.267388,49.141205],[2.267315,49.141427],[2.267237,49.141797],[2.267214,49.142086],[2.267231,49.142352],[2.267312,49.142797],[2.263125,49.141393],[2.259786,49.140285],[2.258913,49.140011],[2.258659,49.139937],[2.258351,49.139873],[2.257987,49.139838],[2.25765,49.139728],[2.257626,49.13976],[2.257244,49.139635],[2.257217,49.13967],[2.256745,49.139513],[2.256667,49.139614],[2.22417,49.128752],[2.223593,49.128543],[2.222729,49.128183],[2.217603,49.125754],[2.216692,49.125302],[2.215742,49.124742],[2.215091,49.124268],[2.214701,49.123941],[2.214241,49.123527],[2.213748,49.123006],[2.213544,49.122764],[2.213069,49.122132],[2.212914,49.121875],[2.212624,49.121296],[2.212542,49.121095],[2.212385,49.120569],[2.212245,49.119939],[2.212163,49.119352],[2.211786,49.116273],[2.211621,49.115311],[2.211542,49.114971],[2.211272,49.114203],[2.210975,49.113537],[2.210479,49.112652],[2.2101,49.111891],[2.20995,49.111507],[2.209762,49.110734],[2.20971,49.110371],[2.209605,49.10872],[2.209365,49.104479],[2.209304,49.104],[2.209215,49.103551],[2.208995,49.102793],[2.208815,49.102336],[2.208506,49.101658],[2.203411,49.091238],[2.203733,49.091153],[2.202413,49.08865],[2.202397,49.088535],[2.202417,49.08784],[2.202313,49.087839],[2.202556,49.087224],[2.201629,49.087063]],[[2.26871,49.143553],[2.2687,49.143543],[2.268782,49.143479],[2.26871,49.143553]],[[2.120549,49.051092],[2.120438,49.050468],[2.120412,49.050131],[2.12041,49.049817],[2.120452,49.049201],[2.120492,49.048936],[2.120649,49.048258],[2.120816,49.047735],[2.121784,49.044905],[2.12272,49.044297],[2.123411,49.043788],[2.124081,49.043228],[2.124775,49.042555],[2.12559,49.041658],[2.125911,49.041272],[2.126512,49.040432],[2.127891,49.038399],[2.12825,49.038001],[2.132905,49.033671],[2.13708,49.029844],[2.137769,49.02923],[2.138191,49.028907],[2.139015,49.028356],[2.139837,49.027898],[2.145425,49.025127],[2.148763,49.023516],[2.150398,49.022867],[2.151129,49.022615],[2.152667,49.02214],[2.161502,49.019756],[2.181236,49.014393],[2.193829,49.010991],[2.197484,49.00998],[2.198576,49.009652],[2.199618,49.009318],[2.201519,49.008629],[2.201482,49.008586],[2.20161,49.008537],[2.20165,49.008579],[2.205564,49.007111],[2.207053,49.006532],[2.209689,49.005565],[2.213743,49.004032],[2.214507,49.003759],[2.220115,49.001666],[2.226681,48.999193],[2.231566,48.997335],[2.237525,48.99511],[2.241564,48.993624],[2.250723,48.99016],[2.262654,48.985682],[2.264353,48.985159],[2.262688,48.990785],[2.262488,48.991407],[2.262168,48.992135],[2.261726,48.992853],[2.261174,48.993588],[2.246916,49.011281],[2.246337,49.011974],[2.246026,49.012317],[2.245826,49.012504],[2.245421,49.012868],[2.244816,49.013334],[2.243851,49.013997],[2.24377,49.013949],[2.243185,49.014357],[2.242114,49.015153],[2.241535,49.015597],[2.240902,49.016111],[2.240225,49.016522],[2.239651,49.016795],[2.237499,49.017737],[2.232418,49.020026],[2.2285,49.021811],[2.219864,49.0257],[2.219237,49.026004],[2.218795,49.026258],[2.217984,49.026827],[2.217725,49.027056],[2.216958,49.02783],[2.208787,49.036247],[2.208323,49.036682],[2.20772,49.037186],[2.207291,49.037502],[2.206807,49.037818],[2.205834,49.038369],[2.199538,49.041523],[2.199097,49.041761],[2.198672,49.042026],[2.198299,49.042292],[2.197897,49.042646],[2.197593,49.042973],[2.197327,49.0433],[2.19712,49.043638],[2.196951,49.043979],[2.196795,49.04439],[2.196702,49.044777],[2.196408,49.04773],[2.196335,49.048216],[2.196231,49.048573],[2.196138,49.048804],[2.195659,49.049827],[2.195451,49.0502],[2.195304,49.05042],[2.195074,49.050688],[2.194747,49.051007],[2.194482,49.051227],[2.193616,49.051834],[2.191528,49.053094],[2.191202,49.053314],[2.190834,49.053602],[2.190615,49.053818],[2.190366,49.054124],[2.190126,49.05451],[2.189967,49.05488],[2.189808,49.055477],[2.189812,49.056085],[2.189929,49.056597],[2.190038,49.05688],[2.19046,49.057615],[2.192135,49.060186],[2.192778,49.061247],[2.193784,49.062818],[2.194251,49.063636],[2.194712,49.064611],[2.196356,49.068598],[2.196626,49.069129],[2.196838,49.069444],[2.197112,49.069754],[2.197354,49.069999],[2.197649,49.070257],[2.19821,49.070667],[2.200047,49.071878],[2.200405,49.072133],[2.200691,49.072367],[2.200931,49.072608],[2.201176,49.072882],[2.203903,49.076363],[2.206258,49.079416],[2.206627,49.079953],[2.206827,49.080398],[2.206916,49.080749],[2.206938,49.081001],[2.206911,49.081377],[2.206858,49.08164],[2.20669,49.082094],[2.206525,49.082382],[2.206352,49.082619],[2.20612,49.082877],[2.205858,49.083127],[2.205606,49.08333],[2.205246,49.083542],[2.20492,49.083725],[2.203464,49.084441],[2.202916,49.084736],[2.2025,49.084981],[2.201854,49.085477],[2.201564,49.085755],[2.201289,49.086057],[2.200964,49.086506],[2.200653,49.085873],[2.200548,49.085712],[2.200398,49.085568],[2.200209,49.085445],[2.199988,49.085347],[2.199743,49.085279],[2.19948,49.085243],[2.196972,49.080103],[2.196631,49.079452],[2.196275,49.07888],[2.195867,49.078325],[2.195139,49.077542],[2.194775,49.077202],[2.194326,49.076826],[2.193832,49.076453],[2.193181,49.076021],[2.192183,49.075449],[2.191716,49.07522],[2.190892,49.074855],[2.189594,49.074334],[2.188855,49.074062],[2.188102,49.073808],[2.187418,49.073597],[2.176383,49.070433],[2.174443,49.069884],[2.173374,49.069598],[2.172377,49.069355],[2.170181,49.068857],[2.168654,49.06855],[2.167071,49.06829],[2.165453,49.068084],[2.16398,49.067954],[2.162806,49.067889],[2.162199,49.06787],[2.160709,49.067856],[2.159955,49.067868],[2.158445,49.067936],[2.156902,49.068063],[2.155597,49.068212],[2.154576,49.068355],[2.147999,49.069357],[2.14747,49.069422],[2.146946,49.069468],[2.145886,49.069509],[2.14535,49.069504],[2.144477,49.069457],[2.143591,49.069364],[2.142827,49.069239],[2.142147,49.069093],[2.141472,49.068916],[2.140832,49.068711],[2.139807,49.068307],[2.139241,49.068035],[2.138746,49.067761],[2.138314,49.06749],[2.13673,49.066306],[2.135961,49.065655],[2.135567,49.065261],[2.135205,49.064851],[2.133064,49.062136],[2.132725,49.061742],[2.132276,49.061282],[2.131789,49.060825],[2.131371,49.060472],[2.130475,49.059785],[2.130535,49.059747],[2.130028,49.059397],[2.12933,49.058772],[2.127551,49.057484],[2.127644,49.057419],[2.126925,49.056973],[2.127077,49.056876],[2.126544,49.056521],[2.124867,49.055489],[2.124213,49.05501],[2.12349,49.054616],[2.123057,49.05429],[2.122618,49.053991],[2.122094,49.053567],[2.121901,49.053371],[2.121786,49.053219],[2.12134,49.05242],[2.121087,49.0518],[2.120891,49.051057],[2.120549,49.051092]],[[2.105037,49.030158],[2.105596,49.030342],[2.106248,49.030534],[2.107379,49.030803],[2.121039,49.033572],[2.121629,49.033749],[2.122142,49.033967],[2.122474,49.034133],[2.122958,49.034443],[2.123278,49.034706],[2.122244,49.035698],[2.121872,49.036117],[2.121621,49.036437],[2.121301,49.036894],[2.12021,49.038515],[2.119716,49.039209],[2.118664,49.040359],[2.118206,49.040759],[2.117885,49.041009],[2.117388,49.041355],[2.116965,49.041614],[2.116616,49.041809],[2.116068,49.042081],[2.115407,49.042362],[2.114881,49.042555],[2.114398,49.042714],[2.113691,49.042908],[2.113065,49.043047],[2.112413,49.043161],[2.111965,49.043223],[2.111283,49.043283],[2.110646,49.043309],[2.109849,49.043271],[2.108862,49.043187],[2.108891,49.042724],[2.108869,49.042348],[2.108803,49.041934],[2.10869,49.041508],[2.108554,49.041088],[2.10669,49.036229],[2.10605,49.034468],[2.105967,49.034176],[2.105037,49.030158]],[[2.114206,49.047571],[2.115138,49.047404],[2.116163,49.047175],[2.117292,49.046864],[2.118042,49.04662],[2.118929,49.046296],[2.119751,49.045955],[2.120235,49.045733],[2.121299,49.045186],[2.120277,49.048209],[2.120116,49.048906],[2.120074,49.049186],[2.120031,49.049809],[2.120034,49.050136],[2.12006,49.050488],[2.120175,49.051131],[2.120064,49.051142],[2.119534,49.050656],[2.118882,49.050137],[2.118416,49.049812],[2.117853,49.049452],[2.117077,49.049021],[2.114206,49.047571]]],[[[2.202471,48.914923],[2.20752,48.912472],[2.20341,48.908799],[2.198327,48.911264],[2.20244,48.914897],[2.202471,48.914923]]],[[[2.092171,48.998014],[2.092245,48.998036],[2.092225,48.998066],[2.093418,48.998418],[2.093362,48.998515],[2.094109,48.998715],[2.094687,48.998966],[2.094712,48.998948],[2.094679,48.999007],[2.094916,48.999066],[2.095231,48.999192],[2.09526,48.999161],[2.095421,48.999223],[2.095394,48.999255],[2.095952,48.999445],[2.097446,48.999886],[2.098185,49.000078],[2.099718,49.00038],[2.102233,49.001003],[2.10226,49.000957],[2.10288,49.001114],[2.1029,49.001079],[2.103553,49.00124],[2.104561,48.999564],[2.106773,48.996138],[2.101449,48.99465],[2.100569,48.994443],[2.096894,48.993409],[2.096872,48.993442],[2.096825,48.993428],[2.096845,48.993396],[2.095521,48.993014],[2.092171,48.998014]]],[[[2.013854,49.05093],[2.01389,49.050912],[2.01394,49.050934],[2.013917,49.050958],[2.014286,49.051109],[2.014874,49.051323],[2.01524,49.051435],[2.015668,49.051553],[2.015689,49.05152],[2.015733,49.051531],[2.015714,49.051565],[2.015804,49.051587],[2.015823,49.051554],[2.015848,49.051559],[2.01583,49.051593],[2.016163,49.05167],[2.016888,49.051805],[2.017605,49.0519],[2.018582,49.051975],[2.019187,49.051991],[2.020127,49.051972],[2.0216,49.051851],[2.037826,49.050234],[2.03852,49.050211],[2.038913,49.050182],[2.041641,49.049914],[2.041629,49.049863],[2.059363,49.048096],[2.060518,49.048005],[2.061896,49.047964],[2.063063,49.047903],[2.062796,49.046077],[2.062391,49.046103],[2.062388,49.046077],[2.060664,49.046132],[2.059709,49.046185],[2.058828,49.046261],[2.041174,49.048023],[2.041162,49.047971],[2.038214,49.048268],[2.037379,49.048396],[2.036262,49.048506],[2.036269,49.048537],[2.036262,49.048506],[2.020339,49.050084],[2.019576,49.050122],[2.018799,49.050112],[2.017908,49.050038],[2.017394,49.049964],[2.016758,49.049825],[2.016379,49.049721],[2.015732,49.049502],[2.015168,49.049262],[2.013529,49.050746],[2.013879,49.050907],[2.013854,49.05093]]],[[[1.928596,49.173554],[1.930601,49.174081],[1.930329,49.174827],[1.93038,49.174835],[1.930375,49.174847],[1.933104,49.175252],[1.933274,49.174783],[1.935011,49.17524],[1.935195,49.174924],[1.935337,49.17462],[1.935824,49.173271],[1.935984,49.17293],[1.93624,49.172573],[1.936461,49.172332],[1.937374,49.171433],[1.937719,49.171068],[1.938198,49.170478],[1.938557,49.169961],[1.938708,49.169685],[1.938919,49.169228],[1.939526,49.167275],[1.939606,49.167108],[1.93976,49.167131],[1.939779,49.167078],[1.94009,49.167119],[1.940597,49.16547],[1.941055,49.164079],[1.941115,49.16388],[1.941188,49.163475],[1.941201,49.163013],[1.941178,49.162696],[1.941119,49.162359],[1.940974,49.161885],[1.940601,49.161938],[1.940571,49.161769],[1.940901,49.161702],[1.940901,49.161702],[1.940612,49.161189],[1.940376,49.160891],[1.940206,49.160712],[1.940107,49.160221],[1.940054,49.160225],[1.939922,49.159498],[1.939883,49.159162],[1.939909,49.158695],[1.939973,49.158376],[1.940061,49.158106],[1.94018,49.157838],[1.940279,49.157648],[1.940523,49.157279],[1.940762,49.156991],[1.941694,49.156036],[1.942077,49.155616],[1.942427,49.155174],[1.942722,49.154741],[1.942971,49.154298],[1.943283,49.153575],[1.943438,49.153045],[1.943538,49.152513],[1.943581,49.15201],[1.943573,49.151567],[1.943519,49.151083],[1.943455,49.150774],[1.943253,49.150087],[1.94247,49.148223],[1.942337,49.147703],[1.942301,49.147322],[1.942393,49.139819],[1.942458,49.13925],[1.942554,49.138849],[1.942703,49.138392],[1.942901,49.137961],[1.943174,49.137474],[1.943323,49.137254],[1.943631,49.136851],[1.94391,49.136537],[1.948551,49.131967],[1.948939,49.131537],[1.949547,49.130744],[1.949943,49.130127],[1.950355,49.129334],[1.953308,49.122614],[1.953669,49.121865],[1.953918,49.121436],[1.954154,49.121121],[1.954412,49.12083],[1.954741,49.120521],[1.955061,49.120249],[1.955537,49.119919],[1.955842,49.119737],[1.956126,49.11958],[1.961119,49.117042],[1.962295,49.116423],[1.963007,49.116023],[1.963672,49.115615],[1.964181,49.115277],[1.96476,49.114866],[1.965375,49.114393],[1.965841,49.114011],[1.966416,49.113496],[1.966763,49.113167],[1.967367,49.112546],[1.968134,49.111643],[1.968771,49.110745],[1.96917,49.110093],[1.969411,49.10965],[1.974935,49.098017],[1.975712,49.096423],[1.975841,49.096185],[1.976066,49.095857],[1.976321,49.095546],[1.976632,49.095235],[1.977159,49.094802],[1.97773,49.094423],[1.978414,49.094061],[1.979206,49.093737],[1.979917,49.093518],[1.982568,49.092924],[1.983616,49.092646],[1.984451,49.092386],[1.984934,49.092218],[1.985621,49.091955],[1.986263,49.091683],[1.987214,49.091241],[1.992365,49.088743],[1.995956,49.087021],[1.996619,49.086687],[2.003508,49.083362],[2.004554,49.082843],[2.005068,49.082611],[2.0056,49.082406],[2.005909,49.082298],[2.006593,49.082097],[2.007347,49.081911],[2.022539,49.078727],[2.022731,49.079131],[2.0228,49.079117],[2.022812,49.079142],[2.028693,49.077912],[2.029252,49.077788],[2.0302,49.077541],[2.031382,49.077185],[2.032361,49.076811],[2.032967,49.076543],[2.033467,49.07629],[2.034266,49.075829],[2.035085,49.075265],[2.035747,49.074719],[2.036164,49.074324],[2.037075,49.07337],[2.037003,49.073341],[2.037048,49.073292],[2.030001,49.070454],[2.029143,49.071393],[2.028852,49.071647],[2.028638,49.071803],[2.028392,49.071959],[2.027935,49.072188],[2.027735,49.072269],[2.027205,49.072441],[2.026667,49.072584],[2.026648,49.072539],[2.025773,49.072687],[2.02538,49.072736],[2.025372,49.072719],[2.024923,49.072808],[2.024957,49.072881],[2.02489,49.072894],[2.024725,49.072564],[2.023576,49.072815],[2.022912,49.072982],[2.022021,49.073249],[2.020997,49.073622],[2.020304,49.073892],[2.019626,49.074099],[2.019896,49.074494],[2.016724,49.075148],[2.005145,49.07758],[2.004366,49.077761],[2.003285,49.078066],[2.00273,49.078237],[2.002196,49.078425],[2.001611,49.078647],[2.000844,49.078976],[1.983097,49.087562],[1.982033,49.088044],[1.981333,49.088305],[1.980449,49.088568],[1.977993,49.089119],[1.976969,49.089378],[1.975829,49.089745],[1.975193,49.089991],[1.974443,49.090313],[1.97395,49.090554],[1.973382,49.090858],[1.972563,49.091351],[1.971999,49.091741],[1.971583,49.092063],[1.970889,49.092661],[1.970446,49.093105],[1.970101,49.093496],[1.969584,49.094183],[1.969237,49.094747],[1.968632,49.095956],[1.968616,49.095951],[1.968356,49.096292],[1.968456,49.096325],[1.968443,49.096351],[1.968337,49.096317],[1.968051,49.096703],[1.967869,49.097001],[1.967127,49.098532],[1.96682,49.099224],[1.966702,49.099618],[1.966669,49.099818],[1.966476,49.100462],[1.966495,49.100465],[1.962799,49.108234],[1.962379,49.108946],[1.961929,49.109581],[1.961451,49.110146],[1.960959,49.11065],[1.960513,49.111063],[1.959759,49.111686],[1.958855,49.112321],[1.958303,49.11266],[1.957525,49.113084],[1.95181,49.115999],[1.951014,49.116443],[1.950315,49.116892],[1.949693,49.117346],[1.949121,49.11783],[1.948463,49.118464],[1.948031,49.118955],[1.947626,49.119489],[1.947353,49.119907],[1.94706,49.120441],[1.946625,49.121347],[1.943693,49.128018],[1.943432,49.128518],[1.943201,49.128872],[1.942824,49.129358],[1.942381,49.129822],[1.938252,49.133868],[1.937753,49.134397],[1.937475,49.134723],[1.936989,49.135364],[1.936695,49.135808],[1.936326,49.136467],[1.935984,49.137205],[1.935799,49.137717],[1.935587,49.138512],[1.935474,49.139221],[1.935427,49.139937],[1.935336,49.147127],[1.935357,49.147694],[1.935391,49.148006],[1.935539,49.148764],[1.935774,49.149476],[1.936494,49.151178],[1.936606,49.15163],[1.936622,49.151892],[1.936606,49.152098],[1.936576,49.152275],[1.936482,49.152595],[1.936352,49.152884],[1.93616,49.153187],[1.935929,49.153467],[1.93483,49.154601],[1.934541,49.154933],[1.934143,49.155446],[1.933743,49.156075],[1.933361,49.156867],[1.933132,49.157531],[1.932993,49.158158],[1.932928,49.158813],[1.932928,49.159313],[1.932971,49.159797],[1.933404,49.162139],[1.93345,49.162822],[1.933473,49.163617],[1.933447,49.164086],[1.933301,49.164798],[1.933058,49.16566],[1.932944,49.165887],[1.932903,49.165882],[1.932772,49.166312],[1.934875,49.166587],[1.932769,49.166321],[1.932332,49.167774],[1.932215,49.168126],[1.932115,49.168318],[1.931735,49.168801],[1.930774,49.169749],[1.930232,49.170331],[1.929901,49.170755],[1.929661,49.171101],[1.929435,49.171478],[1.929205,49.171954],[1.928699,49.173353],[1.928596,49.173554]]],[[[2.007376,49.04339],[2.00646,49.043472],[2.00646,49.043472],[2.006635,49.044134],[2.006928,49.044775],[2.007379,49.045451],[2.007314,49.045472],[2.007687,49.045921],[2.00795,49.046174],[2.008076,49.046284],[2.00814,49.046252],[2.008179,49.046285],[2.008875,49.045936],[2.008641,49.045698],[2.008675,49.045683],[2.008366,49.04537],[2.00809,49.045024],[2.007884,49.044715],[2.007729,49.044437],[2.007525,49.043967],[2.007376,49.04339]]]]}}]}