{"type":"FeatureCollection","features":[{"type":"Feature","properties":{"ID":"TRONFERR0000000309192034","NATURE":"Tramway","NB_VOIES":"2","ligneratp":"T5","categorie":"5","tampon":"10","largeurpf":"5.2"},"geometry":{"type":"MultiLineString","coordinates":[[[2.358845,48.959965],[2.358855,48.960058],[2.358858,48.960095],[2.358861,48.960137],[2.358865,48.960181],[2.35887,48.960224],[2.358872,48.960247],[2.358899,48.96044],[2.358908,48.960513],[2.358915,48.960559],[2.358914,48.960563],[2.358982,48.961157],[2.358984,48.961166],[2.358987,48.96119],[2.358992,48.961225],[2.358997,48.961262],[2.359002,48.961305],[2.359007,48.96135],[2.359019,48.96145],[2.359025,48.961504],[2.359033,48.96156],[2.359039,48.961615],[2.359047,48.961672],[2.35906,48.961787],[2.359068,48.961847],[2.359075,48.961909],[2.359082,48.961968],[2.359089,48.962026],[2.359095,48.962084],[2.359108,48.962201],[2.359116,48.96226],[2.359122,48.962317],[2.359129,48.962371],[2.359136,48.962424],[2.35916,48.962529],[2.359179,48.962579],[2.359199,48.962629],[2.359224,48.962677],[2.359282,48.962771],[2.359311,48.962817],[2.359342,48.962862],[2.359371,48.962906],[2.359401,48.962952],[2.359464,48.963046],[2.359499,48.963096],[2.359536,48.963144],[2.359626,48.963224],[2.359723,48.963285],[2.359949,48.963387],[2.359968,48.963395],[2.360033,48.963423],[2.360079,48.963442],[2.360125,48.963463],[2.360177,48.963483],[2.360233,48.96351],[2.360845,48.963766],[2.360879,48.96378],[2.360962,48.963816],[2.361014,48.963839],[2.361068,48.963862],[2.361171,48.96391],[2.361265,48.963954],[2.361313,48.963979],[2.361405,48.964032],[2.361496,48.96409],[2.36154,48.964119],[2.361582,48.96415],[2.361624,48.964182],[2.361719,48.964261],[2.361776,48.964309],[2.361836,48.964362],[2.361903,48.964418],[2.361973,48.964479],[2.362044,48.964541],[2.362194,48.964671],[2.362273,48.964738],[2.362432,48.964874],[2.362511,48.964943],[2.36259,48.965011],[2.362668,48.965076],[2.362742,48.96514],[2.362815,48.965202],[2.362943,48.965312],[2.362999,48.965359],[2.363074,48.965423],[2.363096,48.965442],[2.363169,48.965505],[2.363187,48.965521],[2.363214,48.965545],[2.363262,48.965586],[2.363293,48.965612],[2.363354,48.965663],[2.363384,48.965689],[2.363404,48.965706],[2.363415,48.965715],[2.363426,48.965725],[2.363446,48.965742],[2.36347,48.965761],[2.363499,48.965785],[2.363569,48.965845],[2.363642,48.965908],[2.363681,48.96594],[2.363762,48.966009],[2.363841,48.96608],[2.363876,48.966119],[2.363948,48.966207],[2.364031,48.966308],[2.364117,48.966415],[2.36416,48.966468],[2.364201,48.966519],[2.364288,48.966624],[2.364329,48.966676],[2.364415,48.966781],[2.364458,48.966835],[2.364545,48.966939],[2.364632,48.967048],[2.364722,48.967158],[2.364767,48.967214],[2.364853,48.967329],[2.364893,48.967387],[2.364929,48.967447],[2.364964,48.967509],[2.364994,48.967572],[2.365047,48.967705],[2.36507,48.967772],[2.365091,48.967841],[2.36511,48.967909],[2.365194,48.968186],[2.365216,48.968252],[2.365254,48.968378],[2.365272,48.968441],[2.36529,48.968506],[2.36533,48.968638],[2.365389,48.968832],[2.365408,48.968896],[2.365427,48.96896],[2.365466,48.969087],[2.365504,48.969214],[2.365523,48.969276],[2.365541,48.969338],[2.365558,48.969397],[2.365575,48.969455],[2.365592,48.96951],[2.365607,48.96956],[2.365621,48.969608],[2.365636,48.969654],[2.365675,48.969783],[2.365688,48.969826],[2.36571,48.9699],[2.36572,48.969933],[2.365751,48.970036],[2.365756,48.970057],[2.365761,48.970076],[2.365767,48.970091],[2.365771,48.970104],[2.365773,48.970113],[2.365775,48.970119],[2.365792,48.970176],[2.365798,48.970194],[2.365805,48.970217],[2.365826,48.970287],[2.365839,48.970329],[2.365853,48.970374],[2.365867,48.97042],[2.36588,48.970463],[2.365902,48.970538],[2.365911,48.970565],[2.365919,48.970594],[2.365932,48.970637],[2.365952,48.970703],[2.365962,48.970739],[2.365973,48.970777],[2.365985,48.970812],[2.365995,48.970847],[2.366014,48.970909],[2.36602,48.970931],[2.366023,48.970943],[2.366027,48.970952],[2.366041,48.970999],[2.366053,48.971037],[2.366077,48.971118],[2.366107,48.971219],[2.366124,48.971275],[2.366158,48.971388],[2.366193,48.971501],[2.366228,48.971614],[2.366245,48.971668],[2.366259,48.971721],[2.366289,48.971821],[2.366301,48.97187],[2.366313,48.971921],[2.366323,48.971972],[2.366337,48.972079],[2.366341,48.972191],[2.366337,48.972246],[2.366334,48.972301],[2.366326,48.972358],[2.366318,48.972413],[2.366297,48.972525],[2.366285,48.972581],[2.366274,48.972637],[2.366249,48.972749],[2.366238,48.972805],[2.366225,48.97286],[2.366213,48.972915],[2.366191,48.973022],[2.36618,48.973075],[2.366157,48.973182],[2.366145,48.973236],[2.366133,48.973291],[2.36611,48.973399],[2.366099,48.973454],[2.366086,48.973508],[2.366063,48.973617],[2.36605,48.973672],[2.366039,48.973726],[2.366028,48.973777],[2.366012,48.973869],[2.366006,48.973912],[2.366005,48.973952],[2.366006,48.973984],[2.366009,48.974],[2.366009,48.974004],[2.366022,48.974058],[2.366039,48.974103],[2.366052,48.974133],[2.366081,48.974195],[2.366111,48.974258],[2.366125,48.974288],[2.366159,48.974352],[2.366176,48.974388],[2.366212,48.974462],[2.366231,48.974498],[2.366267,48.974572],[2.366287,48.97461],[2.366324,48.974685],[2.366363,48.97476],[2.366401,48.974836],[2.366424,48.974874],[2.366446,48.974914],[2.366468,48.974957],[2.36649,48.974997],[2.366556,48.975121],[2.366596,48.975199],[2.366622,48.975253],[2.366654,48.975309],[2.366681,48.975358],[2.366722,48.975433],[2.366809,48.975602],[2.366882,48.975739],[2.36693,48.975828],[2.367095,48.976129],[2.367143,48.976209],[2.36719,48.976288],[2.367241,48.976368],[2.367269,48.976412],[2.367297,48.976457],[2.367326,48.976505],[2.367381,48.976596],[2.367409,48.976641],[2.367468,48.976736],[2.367523,48.976827],[2.36755,48.976869],[2.367576,48.97691],[2.367601,48.97695],[2.367625,48.976989],[2.367676,48.977072],[2.367727,48.977156],[2.367751,48.977199],[2.367774,48.977239],[2.367796,48.97728],[2.367837,48.977359],[2.367855,48.977398],[2.367874,48.977436],[2.367892,48.977474],[2.36793,48.977547],[2.367949,48.977585],[2.367966,48.977621],[2.367999,48.97769],[2.368034,48.977757],[2.36805,48.977787],[2.368075,48.977833],[2.368101,48.977872],[2.368128,48.977906],[2.368143,48.977921],[2.368194,48.977965],[2.36822,48.977984],[2.368256,48.978003],[2.368296,48.978018],[2.368354,48.978035],[2.368421,48.978048],[2.368496,48.978056],[2.368552,48.978055],[2.368642,48.978046],[2.368749,48.97803],[2.368846,48.978016],[2.3689,48.978008],[2.369008,48.977993],[2.369554,48.97791],[2.369751,48.977875],[2.369806,48.977867],[2.369854,48.977859],[2.369899,48.977853],[2.369944,48.977848],[2.37049,48.977763],[2.370626,48.977738],[2.370665,48.977731],[2.370699,48.977726],[2.370727,48.977722],[2.37075,48.977718],[2.370767,48.977715],[2.370857,48.977702],[2.371125,48.97766],[2.371597,48.977588],[2.371645,48.977581],[2.371742,48.977566],[2.371841,48.977551],[2.371942,48.977537],[2.372423,48.97746],[2.372568,48.977437],[2.37275,48.977413],[2.372933,48.977389],[2.373441,48.977306],[2.373613,48.977279],[2.373776,48.977253],[2.373894,48.977235],[2.374395,48.977162],[2.374507,48.977144],[2.374586,48.977132],[2.37467,48.977119],[2.374757,48.977104],[2.374849,48.977088],[2.375315,48.977011],[2.375632,48.976956],[2.375757,48.976933],[2.375787,48.976927],[2.376047,48.976876],[2.376381,48.976819],[2.376541,48.976795],[2.376607,48.976785],[2.376757,48.976759],[2.376879,48.976743],[2.376979,48.976737],[2.377097,48.976731],[2.377302,48.9767],[2.377414,48.976683],[2.377566,48.976657],[2.377654,48.976643],[2.377949,48.976595],[2.378027,48.976582],[2.378116,48.976568],[2.378202,48.976558],[2.378302,48.976564],[2.378353,48.976571],[2.378426,48.976589],[2.37849,48.976615],[2.378548,48.976646],[2.378573,48.976671],[2.378589,48.976696],[2.37861,48.976738],[2.378633,48.976788],[2.37872,48.977038],[2.378767,48.977191],[2.378786,48.977245],[2.378806,48.977299],[2.3795,48.97922],[2.379523,48.979256],[2.379551,48.97928],[2.379611,48.979306],[2.379657,48.979321],[2.379703,48.979331],[2.379748,48.979335],[2.379799,48.979335],[2.379852,48.979328],[2.379907,48.97932],[2.379962,48.979311],[2.380018,48.979304],[2.380075,48.979295],[2.380284,48.979263],[2.380359,48.979252],[2.380424,48.979241],[2.380497,48.97923],[2.380581,48.979217],[2.380671,48.979202],[2.380761,48.979188],[2.380852,48.979174],[2.380939,48.97916],[2.38102,48.979148],[2.381097,48.979136],[2.38117,48.979126],[2.38124,48.979115],[2.381365,48.979097],[2.381541,48.979068],[2.381647,48.979053],[2.381711,48.979042],[2.381793,48.97903],[2.381875,48.979016],[2.381959,48.979004],[2.382041,48.978992],[2.382222,48.978963],[2.382317,48.978948],[2.382416,48.978932],[2.38261,48.978903],[2.382705,48.978888],[2.38288,48.978861],[2.382958,48.978849],[2.383033,48.978838],[2.383103,48.978826],[2.383171,48.978817],[2.383286,48.978798],[2.383392,48.978782],[2.383464,48.978771],[2.383693,48.978735],[2.383815,48.978716],[2.384021,48.978684],[2.384135,48.978667],[2.384342,48.978636],[2.384418,48.978624],[2.384499,48.978611],[2.384585,48.978597],[2.38477,48.978569],[2.384957,48.97854],[2.385122,48.978515],[2.385263,48.978493],[2.385398,48.978473],[2.385472,48.978462],[2.385551,48.978449],[2.385636,48.978436],[2.385724,48.978422],[2.385811,48.978408],[2.3859,48.978394],[2.385991,48.97838],[2.386081,48.978366],[2.386171,48.978352],[2.386263,48.978337],[2.386353,48.978324],[2.386444,48.97831],[2.386535,48.978296],[2.386624,48.978282],[2.386709,48.978268],[2.386794,48.978254],[2.38688,48.97824],[2.386964,48.978227],[2.387041,48.978213],[2.387116,48.978199],[2.387188,48.978184],[2.387256,48.978169],[2.387347,48.978148],[2.387424,48.978132],[2.387498,48.978117],[2.387575,48.978102],[2.387683,48.978083],[2.387754,48.97807],[2.387829,48.978057],[2.387906,48.978045],[2.387987,48.978032],[2.388069,48.978019],[2.388155,48.978006],[2.388245,48.977994],[2.388336,48.97798],[2.388427,48.977965],[2.38852,48.977951],[2.388613,48.977936],[2.388705,48.977922],[2.388796,48.977906],[2.388884,48.977891],[2.388973,48.977875],[2.38906,48.97786],[2.389145,48.977843],[2.389229,48.977827],[2.389383,48.977796],[2.389455,48.977781],[2.389527,48.977765],[2.389602,48.977747],[2.389677,48.977726],[2.389751,48.9777],[2.389826,48.97767],[2.389898,48.977635],[2.389966,48.977597],[2.39003,48.977558],[2.390095,48.977518],[2.390161,48.977478],[2.390227,48.977437],[2.390288,48.977399],[2.39035,48.977361],[2.390412,48.977321],[2.390476,48.977281],[2.390541,48.977242],[2.390606,48.977203],[2.390669,48.977163],[2.390732,48.977124],[2.390791,48.977088],[2.390848,48.977053],[2.390904,48.977018],[2.390962,48.976983],[2.391017,48.976949],[2.391072,48.976915],[2.391126,48.976883],[2.391177,48.976851],[2.391449,48.976701],[2.391774,48.97656]]]}},{"type":"Feature","properties":{"ID":"TRONFERR0000000242621055","NATURE":"Tramway","NB_VOIES":"2","ligneratp":"T2","categorie":"5","tampon":"10","largeurpf":"4.8"},"geometry":{"type":"MultiLineString","coordinates":[[[2.217299,48.924913],[2.217351,48.924612],[2.217452,48.924067],[2.217515,48.923677],[2.217592,48.923253],[2.217649,48.922932],[2.217668,48.922834],[2.217699,48.922696],[2.217725,48.92261],[2.217749,48.922561],[2.217777,48.922516],[2.217845,48.922445],[2.217911,48.922391],[2.218143,48.922221],[2.218782,48.921764],[2.218979,48.921629],[2.219257,48.921434],[2.219864,48.921007],[2.22041,48.920618],[2.221279,48.92]]]}}]}