{"type":"FeatureCollection","features":[{"type":"Feature","properties":{"ID":"TRONFERR0000000309192034","NATURE":"Tramway","NB_VOIES":"2","ligneratp":"T5","categorie":"5","tampon":"10","largeurpf":"5.2"},"geometry":{"type":"MultiPolygon","coordinates":[[[[2.358683,48.960066],[2.358686,48.960101],[2.358689,48.960141],[2.358689,48.960145],[2.358694,48.960189],[2.358694,48.960189],[2.358699,48.96023],[2.3587,48.960251],[2.3587,48.960258],[2.358728,48.96045],[2.358736,48.960522],[2.358737,48.960525],[2.358743,48.960564],[2.358742,48.960572],[2.35881,48.961166],[2.358813,48.961178],[2.358814,48.961181],[2.358815,48.961197],[2.358816,48.9612],[2.358821,48.961235],[2.358825,48.961272],[2.35883,48.961313],[2.358835,48.961358],[2.358835,48.961359],[2.358848,48.961459],[2.358854,48.961512],[2.358854,48.961513],[2.358861,48.961569],[2.358867,48.961623],[2.358868,48.961625],[2.358875,48.961681],[2.358889,48.961796],[2.358889,48.961796],[2.358896,48.961856],[2.358903,48.961918],[2.358904,48.961918],[2.358911,48.961976],[2.358917,48.962034],[2.358917,48.962034],[2.358923,48.962092],[2.358923,48.962093],[2.358937,48.96221],[2.358937,48.96221],[2.358944,48.962269],[2.35895,48.962325],[2.358951,48.962327],[2.358958,48.962381],[2.358964,48.962433],[2.358966,48.962442],[2.35899,48.962546],[2.358993,48.962555],[2.359011,48.962606],[2.359012,48.962608],[2.359032,48.962657],[2.359036,48.962665],[2.359061,48.962714],[2.359064,48.96272],[2.359122,48.962814],[2.359123,48.962815],[2.359152,48.962861],[2.359154,48.962864],[2.359185,48.962908],[2.359214,48.962952],[2.359243,48.962996],[2.359243,48.962997],[2.359306,48.963092],[2.359308,48.963094],[2.359343,48.963144],[2.359346,48.963148],[2.359384,48.963196],[2.359397,48.963211],[2.359487,48.963291],[2.359507,48.963307],[2.359605,48.963367],[2.359626,48.963379],[2.359851,48.96348],[2.359854,48.963482],[2.359873,48.96349],[2.359938,48.963518],[2.359944,48.963521],[2.359986,48.963537],[2.360028,48.963556],[2.360038,48.96356],[2.360082,48.963577],[2.36013,48.963601],[2.36014,48.963606],[2.360753,48.963862],[2.360756,48.963863],[2.360787,48.963875],[2.360867,48.96391],[2.360918,48.963933],[2.360919,48.963933],[2.360971,48.963956],[2.361072,48.964002],[2.361161,48.964045],[2.361203,48.964066],[2.361288,48.964115],[2.361374,48.96417],[2.361415,48.964197],[2.361453,48.964225],[2.361492,48.964254],[2.361583,48.964331],[2.361639,48.964377],[2.361699,48.96443],[2.3617,48.964432],[2.361766,48.964487],[2.361836,48.964547],[2.361907,48.964609],[2.361907,48.96461],[2.362057,48.96474],[2.362059,48.964741],[2.362137,48.964807],[2.362295,48.964943],[2.362373,48.965011],[2.362375,48.965012],[2.362454,48.96508],[2.362455,48.96508],[2.362531,48.965145],[2.362605,48.965209],[2.362606,48.96521],[2.362679,48.965271],[2.362807,48.965381],[2.362807,48.965382],[2.362863,48.965429],[2.362938,48.965493],[2.362939,48.965494],[2.36296,48.965511],[2.36303,48.965572],[2.363046,48.965587],[2.363049,48.96559],[2.363076,48.965613],[2.363077,48.965614],[2.363126,48.965655],[2.363128,48.965658],[2.363158,48.965682],[2.363218,48.965733],[2.363248,48.965758],[2.363248,48.965758],[2.363268,48.965775],[2.363269,48.965776],[2.363277,48.965783],[2.363286,48.965791],[2.36329,48.965794],[2.36331,48.965811],[2.363315,48.965815],[2.363336,48.965832],[2.363362,48.965854],[2.363363,48.965855],[2.363433,48.965914],[2.363506,48.965977],[2.363507,48.965978],[2.363546,48.96601],[2.363625,48.966077],[2.363697,48.966143],[2.363726,48.966175],[2.363797,48.966261],[2.363879,48.966361],[2.363964,48.966468],[2.363965,48.966469],[2.364008,48.966521],[2.36405,48.966573],[2.36405,48.966573],[2.364136,48.966677],[2.364177,48.966729],[2.364178,48.96673],[2.364264,48.966835],[2.364306,48.966888],[2.364307,48.966888],[2.364393,48.966993],[2.36448,48.967101],[2.364481,48.967101],[2.36457,48.967211],[2.364613,48.967265],[2.364697,48.967377],[2.364734,48.967432],[2.364768,48.967487],[2.364801,48.967546],[2.364829,48.967604],[2.36488,48.967731],[2.364901,48.967795],[2.364922,48.967862],[2.364941,48.96793],[2.364942,48.967931],[2.365026,48.968209],[2.365026,48.96821],[2.365047,48.968275],[2.365085,48.9684],[2.365103,48.968462],[2.365121,48.968527],[2.365121,48.968528],[2.365161,48.96866],[2.365161,48.96866],[2.36522,48.968854],[2.36522,48.968855],[2.36524,48.968918],[2.365258,48.968981],[2.365258,48.968983],[2.365297,48.969109],[2.365335,48.969236],[2.365354,48.969298],[2.365354,48.969298],[2.365372,48.969359],[2.365389,48.969418],[2.365389,48.969419],[2.365406,48.969476],[2.365407,48.969477],[2.365423,48.969531],[2.365437,48.969581],[2.365438,48.969582],[2.365452,48.96963],[2.365453,48.969631],[2.365467,48.969676],[2.365506,48.969806],[2.365506,48.969806],[2.365519,48.969848],[2.365541,48.969921],[2.36555,48.969953],[2.365551,48.969955],[2.365582,48.970057],[2.365586,48.970076],[2.365587,48.970077],[2.365592,48.970096],[2.365594,48.970101],[2.365599,48.970115],[2.365602,48.970126],[2.365603,48.970131],[2.365604,48.970134],[2.365606,48.970141],[2.365623,48.970198],[2.365624,48.970203],[2.36563,48.970218],[2.365636,48.970238],[2.365636,48.97024],[2.365657,48.970309],[2.365657,48.97031],[2.36567,48.970352],[2.365671,48.970353],[2.365685,48.970396],[2.365697,48.970441],[2.365698,48.970442],[2.365711,48.970485],[2.365733,48.97056],[2.365734,48.970563],[2.365742,48.970588],[2.36575,48.970614],[2.36575,48.970616],[2.365763,48.970659],[2.365783,48.970725],[2.365793,48.97076],[2.365804,48.970797],[2.365805,48.970801],[2.365816,48.970835],[2.365826,48.970869],[2.365845,48.970931],[2.365845,48.970931],[2.36585,48.97095],[2.365852,48.970959],[2.365856,48.970971],[2.365859,48.970978],[2.365873,48.971022],[2.365873,48.971022],[2.365884,48.971059],[2.365908,48.971139],[2.365908,48.97114],[2.365938,48.971241],[2.365938,48.971241],[2.365955,48.971297],[2.365989,48.97141],[2.365989,48.971411],[2.366025,48.971523],[2.366059,48.971636],[2.366059,48.971638],[2.366076,48.97169],[2.36609,48.971741],[2.36609,48.971743],[2.36612,48.97184],[2.366131,48.971887],[2.366142,48.971937],[2.366152,48.971984],[2.366165,48.972085],[2.366169,48.97219],[2.366165,48.972242],[2.366162,48.972294],[2.366155,48.972347],[2.366147,48.972401],[2.366126,48.97251],[2.366115,48.972566],[2.366103,48.972621],[2.366079,48.972733],[2.366079,48.972734],[2.366067,48.972789],[2.366055,48.972842],[2.366054,48.972844],[2.366043,48.972899],[2.366043,48.9729],[2.366021,48.973006],[2.366009,48.97306],[2.365986,48.973166],[2.365986,48.973167],[2.365975,48.97322],[2.365975,48.973221],[2.365963,48.973275],[2.36594,48.973383],[2.36594,48.973383],[2.365928,48.973437],[2.365916,48.973491],[2.365915,48.973493],[2.365892,48.973601],[2.365879,48.973654],[2.365879,48.973658],[2.365869,48.97371],[2.365858,48.97376],[2.365857,48.973764],[2.365841,48.973856],[2.36584,48.973858],[2.365834,48.973901],[2.365834,48.973911],[2.365833,48.973951],[2.365833,48.973955],[2.365834,48.973986],[2.365835,48.973995],[2.365837,48.974012],[2.365838,48.974012],[2.365839,48.974021],[2.365852,48.974076],[2.365855,48.974086],[2.365872,48.974131],[2.365874,48.974135],[2.365887,48.974165],[2.365888,48.974167],[2.365917,48.974228],[2.365946,48.974291],[2.365947,48.974292],[2.365961,48.974322],[2.365963,48.974325],[2.365995,48.974388],[2.366012,48.974423],[2.366012,48.974423],[2.366048,48.974497],[2.366049,48.974499],[2.366067,48.974534],[2.366103,48.974607],[2.366104,48.97461],[2.366124,48.974646],[2.366161,48.97472],[2.366161,48.974722],[2.3662,48.974796],[2.366238,48.974872],[2.366241,48.974876],[2.366263,48.974914],[2.366283,48.974951],[2.366306,48.974994],[2.366306,48.974995],[2.366327,48.975035],[2.366394,48.975159],[2.366433,48.975234],[2.366457,48.975286],[2.366461,48.975293],[2.366492,48.975348],[2.366519,48.975396],[2.36656,48.975471],[2.366646,48.975638],[2.366646,48.97564],[2.36672,48.975777],[2.36672,48.975777],[2.366768,48.975866],[2.366768,48.975867],[2.366933,48.976167],[2.366935,48.97617],[2.366983,48.976251],[2.36703,48.976329],[2.367031,48.976331],[2.367082,48.976412],[2.367082,48.976412],[2.36711,48.976455],[2.367138,48.9765],[2.367167,48.976547],[2.367221,48.976638],[2.367222,48.976639],[2.36725,48.976684],[2.367309,48.976778],[2.367363,48.976869],[2.367364,48.976871],[2.367391,48.976913],[2.367416,48.976953],[2.367417,48.976954],[2.367442,48.976993],[2.367465,48.977032],[2.367466,48.977032],[2.367516,48.977115],[2.367566,48.977197],[2.36759,48.977238],[2.367612,48.977279],[2.367634,48.977317],[2.367673,48.977394],[2.367691,48.977432],[2.367691,48.977433],[2.36771,48.977471],[2.367729,48.977509],[2.367729,48.97751],[2.367766,48.977582],[2.367785,48.977619],[2.367802,48.977655],[2.367835,48.977724],[2.367836,48.977727],[2.367871,48.977794],[2.367872,48.977795],[2.367888,48.977825],[2.367888,48.977825],[2.367914,48.977871],[2.367917,48.977877],[2.367942,48.977916],[2.367949,48.977925],[2.367976,48.977959],[2.367982,48.977967],[2.367997,48.977982],[2.368007,48.977991],[2.368058,48.978034],[2.368065,48.97804],[2.368091,48.978059],[2.368113,48.978072],[2.36815,48.978092],[2.368168,48.9781],[2.368207,48.978115],[2.368228,48.978122],[2.368287,48.978139],[2.368303,48.978143],[2.368369,48.978157],[2.368395,48.97816],[2.36847,48.978168],[2.368503,48.978169],[2.368559,48.978168],[2.368577,48.978167],[2.368667,48.978158],[2.36868,48.978157],[2.368786,48.978141],[2.368788,48.978141],[2.368884,48.978126],[2.368936,48.978119],[2.369043,48.978104],[2.369047,48.978103],[2.369593,48.97802],[2.369599,48.978019],[2.369792,48.977985],[2.369842,48.977978],[2.369847,48.977977],[2.369892,48.97797],[2.369931,48.977964],[2.369973,48.977959],[2.369984,48.977958],[2.37053,48.977873],[2.370536,48.977872],[2.370671,48.977848],[2.370707,48.977841],[2.370738,48.977836],[2.37074,48.977836],[2.370766,48.977832],[2.370788,48.977829],[2.370791,48.977828],[2.370805,48.977826],[2.370894,48.977813],[2.370897,48.977813],[2.371165,48.97777],[2.371635,48.977698],[2.371682,48.977691],[2.371684,48.977691],[2.371781,48.977676],[2.371878,48.977662],[2.371977,48.977648],[2.371983,48.977647],[2.372463,48.97757],[2.372605,48.977548],[2.372784,48.977524],[2.372967,48.9775],[2.372974,48.977499],[2.373481,48.977416],[2.373653,48.977389],[2.373654,48.977389],[2.373815,48.977363],[2.373932,48.977346],[2.374432,48.977272],[2.374434,48.977272],[2.374546,48.977255],[2.374625,48.977242],[2.374626,48.977242],[2.37471,48.977229],[2.374713,48.977229],[2.3748,48.977214],[2.374803,48.977213],[2.374893,48.977197],[2.375356,48.977121],[2.375358,48.97712],[2.375676,48.977065],[2.375678,48.977065],[2.375803,48.977042],[2.375808,48.977041],[2.375837,48.977035],[2.376093,48.976985],[2.376422,48.976929],[2.376579,48.976906],[2.376582,48.976905],[2.376647,48.976895],[2.376649,48.976894],[2.376796,48.97687],[2.376904,48.976855],[2.376994,48.97685],[2.377111,48.976843],[2.377134,48.976841],[2.37734,48.976811],[2.377341,48.97681],[2.377454,48.976793],[2.377456,48.976793],[2.377608,48.976767],[2.377609,48.976767],[2.377696,48.976753],[2.37799,48.976705],[2.377992,48.976705],[2.378068,48.976692],[2.37815,48.976679],[2.378209,48.976672],[2.378278,48.976676],[2.378305,48.97668],[2.37835,48.976691],[2.37839,48.976707],[2.378419,48.976723],[2.37842,48.976724],[2.378428,48.976736],[2.378446,48.976772],[2.378466,48.976817],[2.378552,48.977062],[2.378599,48.977213],[2.378599,48.977216],[2.378618,48.97727],[2.378618,48.977271],[2.378638,48.977325],[2.379332,48.979246],[2.379341,48.979263],[2.379364,48.979299],[2.379386,48.979325],[2.379414,48.979349],[2.379455,48.979374],[2.379515,48.979401],[2.379536,48.979409],[2.379583,48.979423],[2.379603,48.979429],[2.379649,48.979439],[2.379681,48.979444],[2.379726,48.979447],[2.379747,48.979448],[2.379798,48.979449],[2.379832,48.979446],[2.379886,48.97944],[2.379893,48.979439],[2.379998,48.979422],[2.38005,48.979415],[2.380057,48.979415],[2.380114,48.979406],[2.380115,48.979406],[2.380322,48.979374],[2.380397,48.979362],[2.380399,48.979362],[2.380465,48.979352],[2.380537,48.97934],[2.38062,48.979327],[2.380622,48.979327],[2.380711,48.979312],[2.380891,48.979285],[2.380892,48.979285],[2.380979,48.979271],[2.381058,48.979259],[2.38106,48.979258],[2.381135,48.979247],[2.381206,48.979236],[2.381209,48.979236],[2.381278,48.979226],[2.381402,48.979208],[2.381406,48.979207],[2.381581,48.979179],[2.381685,48.979163],[2.381688,48.979163],[2.381751,48.979152],[2.381831,48.979141],[2.381836,48.97914],[2.381915,48.979126],[2.381996,48.979114],[2.381997,48.979114],[2.382079,48.979102],[2.382081,48.979102],[2.382261,48.979073],[2.382357,48.979058],[2.382358,48.979058],[2.382455,48.979043],[2.382649,48.979013],[2.38265,48.979013],[2.382744,48.978998],[2.382919,48.978971],[2.38292,48.978971],[2.382997,48.978959],[2.383071,48.978948],[2.383074,48.978948],[2.383141,48.978937],[2.383207,48.978928],[2.383212,48.978927],[2.383327,48.978909],[2.383432,48.978892],[2.383504,48.978881],[2.383733,48.978845],[2.383733,48.978845],[2.383854,48.978826],[2.38406,48.978795],[2.38406,48.978795],[2.384174,48.978777],[2.38438,48.978746],[2.384382,48.978746],[2.384458,48.978734],[2.384537,48.978722],[2.38454,48.978721],[2.384626,48.978708],[2.384809,48.978679],[2.384996,48.97865],[2.385161,48.978625],[2.385301,48.978603],[2.385436,48.978584],[2.385437,48.978583],[2.385511,48.978572],[2.385591,48.97856],[2.385675,48.978547],[2.385679,48.978546],[2.385766,48.978532],[2.385852,48.978518],[2.38594,48.978504],[2.38603,48.97849],[2.38612,48.978476],[2.386211,48.978462],[2.386212,48.978462],[2.386302,48.978448],[2.38639,48.978435],[2.386393,48.978434],[2.386483,48.978421],[2.386574,48.978407],[2.386575,48.978406],[2.386664,48.978393],[2.386666,48.978392],[2.386751,48.978378],[2.386836,48.978364],[2.386838,48.978364],[2.386922,48.97835],[2.387004,48.978337],[2.387007,48.978336],[2.387084,48.978323],[2.38709,48.978322],[2.387165,48.978307],[2.387167,48.978307],[2.38724,48.978292],[2.387244,48.978291],[2.38731,48.978276],[2.387402,48.978256],[2.387476,48.97824],[2.387548,48.978225],[2.387621,48.978211],[2.387728,48.978192],[2.387729,48.978192],[2.387798,48.978179],[2.38787,48.978167],[2.387946,48.978155],[2.387947,48.978155],[2.388027,48.978142],[2.388108,48.978129],[2.388191,48.978117],[2.38828,48.978105],[2.388285,48.978104],[2.388375,48.97809],[2.388377,48.97809],[2.388467,48.978075],[2.388559,48.978062],[2.388561,48.978061],[2.388654,48.978047],[2.388655,48.978046],[2.388746,48.978032],[2.388749,48.978031],[2.388839,48.978016],[2.388927,48.978001],[2.388929,48.978],[2.389018,48.977985],[2.389019,48.977984],[2.389106,48.977969],[2.389109,48.977968],[2.389193,48.977952],[2.389276,48.977936],[2.389281,48.977935],[2.389434,48.977904],[2.389507,48.977889],[2.38951,48.977888],[2.389582,48.977872],[2.389584,48.977872],[2.38966,48.977854],[2.38967,48.977851],[2.389745,48.97783],[2.389758,48.977826],[2.389832,48.977801],[2.389842,48.977797],[2.389916,48.977766],[2.389927,48.977762],[2.389999,48.977727],[2.390011,48.977721],[2.390078,48.977683],[2.390082,48.97768],[2.390147,48.977641],[2.390149,48.97764],[2.390213,48.977601],[2.390278,48.977561],[2.390344,48.977521],[2.390347,48.977519],[2.390406,48.977481],[2.390468,48.977443],[2.390469,48.977442],[2.39053,48.977403],[2.390594,48.977364],[2.390658,48.977325],[2.390722,48.977286],[2.390725,48.977284],[2.390787,48.977245],[2.390849,48.977208],[2.39085,48.977207],[2.390909,48.97717],[2.390966,48.977136],[2.391021,48.977101],[2.391078,48.977067],[2.391081,48.977065],[2.391135,48.977031],[2.391189,48.976998],[2.391242,48.976966],[2.391243,48.976966],[2.391291,48.976936],[2.391552,48.976792],[2.391869,48.976655],[2.391909,48.976631],[2.391935,48.976601],[2.391946,48.976566],[2.39194,48.976531],[2.391918,48.976498],[2.391882,48.976472],[2.391835,48.976454],[2.391783,48.976447],[2.391729,48.976451],[2.39168,48.976466],[2.391355,48.976606],[2.391338,48.976614],[2.391066,48.976765],[2.391059,48.976769],[2.391009,48.976799],[2.390956,48.976831],[2.390955,48.976832],[2.3909,48.976866],[2.390898,48.976867],[2.390844,48.976901],[2.390788,48.976935],[2.390787,48.976936],[2.39073,48.97697],[2.390674,48.977005],[2.390674,48.977005],[2.390615,48.977041],[2.390552,48.977079],[2.39055,48.977081],[2.390488,48.97712],[2.390424,48.977159],[2.39036,48.977198],[2.390358,48.977199],[2.390294,48.977239],[2.390292,48.97724],[2.390231,48.977279],[2.39017,48.977317],[2.390168,48.977317],[2.390109,48.977355],[2.390044,48.977394],[2.389978,48.977434],[2.389977,48.977435],[2.389913,48.977475],[2.389851,48.977513],[2.389791,48.977546],[2.38973,48.977576],[2.389666,48.977602],[2.389603,48.977624],[2.389539,48.977642],[2.38947,48.977658],[2.389402,48.977673],[2.389332,48.977687],[2.38918,48.977718],[2.389098,48.977734],[2.389095,48.977734],[2.389012,48.977751],[2.388928,48.977766],[2.388841,48.977781],[2.388753,48.977796],[2.388752,48.977796],[2.388663,48.977812],[2.388573,48.977826],[2.388481,48.977841],[2.388389,48.977855],[2.388386,48.977855],[2.388295,48.97787],[2.388208,48.977883],[2.388121,48.977895],[2.388116,48.977896],[2.38803,48.977909],[2.388028,48.977909],[2.387946,48.977922],[2.387946,48.977922],[2.387865,48.977935],[2.387789,48.977947],[2.387788,48.977947],[2.387713,48.97796],[2.387708,48.97796],[2.387637,48.977973],[2.38753,48.977993],[2.387526,48.977993],[2.387449,48.978008],[2.387448,48.978008],[2.387374,48.978023],[2.38737,48.978024],[2.387293,48.978041],[2.387293,48.978041],[2.387201,48.978061],[2.3872,48.978061],[2.387135,48.978076],[2.387065,48.97809],[2.386994,48.978104],[2.386922,48.978117],[2.386841,48.978129],[2.386837,48.97813],[2.386752,48.978145],[2.386668,48.978158],[2.386584,48.978172],[2.386496,48.978186],[2.386405,48.9782],[2.386405,48.9782],[2.386315,48.978214],[2.386226,48.978226],[2.386222,48.978227],[2.386131,48.978242],[2.386042,48.978256],[2.385952,48.978269],[2.385861,48.978283],[2.385861,48.978283],[2.385772,48.978297],[2.385771,48.978298],[2.385683,48.978311],[2.385681,48.978312],[2.385595,48.978326],[2.385512,48.978339],[2.385433,48.978351],[2.38536,48.978363],[2.385225,48.978382],[2.385223,48.978383],[2.385082,48.978404],[2.384918,48.97843],[2.384731,48.978458],[2.38473,48.978458],[2.384546,48.978487],[2.384544,48.978487],[2.384459,48.978501],[2.38438,48.978513],[2.384378,48.978513],[2.384302,48.978525],[2.384096,48.978557],[2.384096,48.978557],[2.383982,48.978574],[2.383776,48.978605],[2.383775,48.978606],[2.383653,48.978625],[2.383425,48.97866],[2.383352,48.978672],[2.383352,48.978672],[2.383246,48.978688],[2.383246,48.978688],[2.383133,48.978706],[2.383067,48.978715],[2.383062,48.978716],[2.382993,48.978727],[2.38292,48.978738],[2.382918,48.978739],[2.38284,48.978751],[2.382665,48.978778],[2.382665,48.978778],[2.382571,48.978793],[2.382377,48.978822],[2.382375,48.978822],[2.382277,48.978838],[2.382182,48.978853],[2.382181,48.978853],[2.382002,48.978881],[2.381921,48.978893],[2.381838,48.978905],[2.381832,48.978906],[2.381753,48.97892],[2.381673,48.978932],[2.38167,48.978932],[2.381607,48.978942],[2.381503,48.978958],[2.3815,48.978958],[2.381325,48.978987],[2.381203,48.979005],[2.381202,48.979005],[2.381133,48.979015],[2.38106,48.979025],[2.381056,48.979026],[2.38098,48.979038],[2.380901,48.97905],[2.380899,48.97905],[2.380812,48.979064],[2.380632,48.979092],[2.380629,48.979092],[2.38054,48.979107],[2.380457,48.97912],[2.380385,48.979131],[2.380384,48.979131],[2.380319,48.979142],[2.380245,48.979153],[2.380244,48.979153],[2.380036,48.979185],[2.379983,48.979193],[2.37993,48.9792],[2.379921,48.979201],[2.379816,48.979218],[2.379783,48.979222],[2.37976,48.979222],[2.379742,48.97922],[2.379722,48.979216],[2.379696,48.979208],[2.379672,48.979197],[2.379664,48.979184],[2.378973,48.977273],[2.378973,48.977272],[2.378953,48.977219],[2.378936,48.977167],[2.378889,48.977016],[2.378888,48.977013],[2.378801,48.976763],[2.378798,48.976756],[2.378775,48.976705],[2.378773,48.976701],[2.378752,48.97666],[2.378747,48.976652],[2.378731,48.976627],[2.378717,48.976609],[2.378692,48.976584],[2.378658,48.976559],[2.3786,48.976527],[2.378579,48.976518],[2.378515,48.976492],[2.378487,48.976483],[2.378414,48.976465],[2.378386,48.97646],[2.378335,48.976453],[2.378318,48.976451],[2.378218,48.976445],[2.378174,48.976447],[2.378088,48.976456],[2.378076,48.976457],[2.377987,48.976471],[2.377985,48.976472],[2.377907,48.976485],[2.377612,48.976533],[2.377611,48.976533],[2.377524,48.976548],[2.377373,48.976573],[2.377263,48.97659],[2.37707,48.976618],[2.376964,48.976624],[2.376964,48.976624],[2.376864,48.97663],[2.376845,48.976632],[2.376723,48.976648],[2.376715,48.97665],[2.376565,48.976675],[2.376502,48.976685],[2.376344,48.976708],[2.376337,48.976709],[2.376003,48.976767],[2.375998,48.976768],[2.375738,48.976818],[2.375736,48.976819],[2.375708,48.976824],[2.375587,48.976846],[2.375272,48.976901],[2.374807,48.976978],[2.374804,48.976978],[2.374713,48.976995],[2.374629,48.977009],[2.374547,48.977022],[2.374468,48.977034],[2.374468,48.977034],[2.374356,48.977051],[2.373856,48.977125],[2.373739,48.977142],[2.373735,48.977143],[2.373573,48.977169],[2.373401,48.977196],[2.373399,48.977196],[2.372895,48.977278],[2.372716,48.977302],[2.372716,48.977302],[2.372534,48.977326],[2.372528,48.977327],[2.372383,48.97735],[2.372382,48.97735],[2.371904,48.977427],[2.371806,48.97744],[2.371803,48.977441],[2.371704,48.977455],[2.371704,48.977456],[2.371607,48.97747],[2.37156,48.977477],[2.371558,48.977477],[2.371086,48.977549],[2.371085,48.97755],[2.370818,48.977592],[2.37073,48.977605],[2.370726,48.977605],[2.370711,48.977608],[2.370689,48.977611],[2.370686,48.977611],[2.37066,48.977616],[2.370626,48.977621],[2.370621,48.977622],[2.370581,48.977629],[2.37058,48.977629],[2.370447,48.977653],[2.369909,48.977737],[2.369869,48.977741],[2.369864,48.977742],[2.369819,48.977748],[2.369812,48.977749],[2.369767,48.977757],[2.369715,48.977764],[2.369706,48.977765],[2.369512,48.9778],[2.368971,48.977882],[2.368865,48.977897],[2.368862,48.977897],[2.368809,48.977905],[2.368808,48.977905],[2.368711,48.97792],[2.368611,48.977935],[2.368536,48.977942],[2.368506,48.977942],[2.36846,48.977938],[2.368414,48.977928],[2.368374,48.977917],[2.368354,48.977909],[2.368338,48.977901],[2.368326,48.977892],[2.368283,48.977856],[2.368277,48.977849],[2.368256,48.977824],[2.368236,48.977791],[2.368212,48.977748],[2.368196,48.97772],[2.368163,48.977655],[2.36813,48.977587],[2.368113,48.977551],[2.368112,48.97755],[2.368094,48.977512],[2.368093,48.977511],[2.368056,48.977438],[2.368038,48.977401],[2.368019,48.977363],[2.368001,48.977325],[2.368,48.977324],[2.36796,48.977244],[2.367958,48.977241],[2.367935,48.9772],[2.367913,48.97716],[2.367912,48.977159],[2.367888,48.977117],[2.367887,48.977114],[2.367836,48.97703],[2.367836,48.97703],[2.367785,48.976947],[2.367761,48.976908],[2.36776,48.976906],[2.367734,48.976866],[2.367709,48.976826],[2.367709,48.976826],[2.367683,48.976784],[2.367628,48.976694],[2.367628,48.976693],[2.367569,48.976598],[2.367541,48.976554],[2.367486,48.976463],[2.367486,48.976462],[2.367456,48.976415],[2.367456,48.976414],[2.367428,48.976369],[2.367428,48.976368],[2.367399,48.976324],[2.367349,48.976245],[2.367303,48.976168],[2.367303,48.976167],[2.367256,48.976089],[2.367092,48.97579],[2.367044,48.975701],[2.366971,48.975565],[2.366885,48.975397],[2.366884,48.975395],[2.366843,48.975319],[2.366842,48.975319],[2.366816,48.975271],[2.366815,48.975269],[2.366785,48.975216],[2.366761,48.975166],[2.366759,48.975163],[2.366719,48.975085],[2.366719,48.975084],[2.366652,48.974959],[2.366652,48.974959],[2.366631,48.97492],[2.366608,48.974877],[2.366608,48.974876],[2.366586,48.974837],[2.366585,48.974834],[2.366563,48.974797],[2.366526,48.974724],[2.366526,48.974723],[2.366487,48.974649],[2.36645,48.974575],[2.366449,48.974573],[2.36643,48.974536],[2.366395,48.974464],[2.366394,48.974462],[2.366375,48.974427],[2.36634,48.974354],[2.366323,48.974318],[2.366322,48.974316],[2.366289,48.974253],[2.366275,48.974224],[2.366246,48.974161],[2.366246,48.974161],[2.366217,48.9741],[2.366205,48.974074],[2.36619,48.974036],[2.36618,48.973992],[2.36618,48.973988],[2.366178,48.973977],[2.366177,48.973952],[2.366178,48.973917],[2.366183,48.97388],[2.366198,48.973792],[2.36621,48.973742],[2.36621,48.97374],[2.36622,48.973688],[2.366233,48.973635],[2.366233,48.973633],[2.366256,48.973525],[2.366269,48.973471],[2.366269,48.973469],[2.366281,48.973415],[2.366304,48.973307],[2.366304,48.973307],[2.366315,48.973252],[2.366327,48.973198],[2.36635,48.973091],[2.36635,48.973091],[2.366362,48.973037],[2.366362,48.973037],[2.366384,48.97293],[2.366395,48.972876],[2.366408,48.972823],[2.366408,48.972821],[2.36642,48.972765],[2.366444,48.972653],[2.366444,48.972653],[2.366456,48.972597],[2.366456,48.972597],[2.366468,48.97254],[2.366468,48.972538],[2.366488,48.972427],[2.366489,48.972425],[2.366498,48.97237],[2.366498,48.972368],[2.366505,48.972311],[2.366506,48.972306],[2.366509,48.972251],[2.366513,48.972195],[2.366513,48.972188],[2.366509,48.972076],[2.366508,48.97207],[2.366494,48.971962],[2.366494,48.971957],[2.366483,48.971906],[2.366483,48.971904],[2.366471,48.971853],[2.366471,48.971853],[2.366459,48.971803],[2.366458,48.971799],[2.366428,48.9717],[2.366414,48.971648],[2.366413,48.971645],[2.366396,48.971592],[2.366362,48.971479],[2.366362,48.971478],[2.366327,48.971366],[2.366293,48.971253],[2.366293,48.971253],[2.366276,48.971197],[2.366246,48.971097],[2.366222,48.971016],[2.366222,48.971014],[2.36621,48.970977],[2.366195,48.97093],[2.366193,48.970924],[2.366192,48.97092],[2.36619,48.970914],[2.366189,48.970909],[2.366182,48.970887],[2.366164,48.970825],[2.366164,48.970825],[2.366154,48.97079],[2.366153,48.970787],[2.366142,48.970754],[2.366132,48.970719],[2.366131,48.970718],[2.366121,48.970682],[2.366121,48.970681],[2.366101,48.970615],[2.366101,48.970615],[2.366088,48.970573],[2.366081,48.970545],[2.366079,48.97054],[2.36607,48.970515],[2.366049,48.970442],[2.366048,48.970441],[2.366036,48.970399],[2.366023,48.970353],[2.366022,48.970351],[2.366007,48.970306],[2.365995,48.970264],[2.365974,48.970196],[2.365968,48.970174],[2.365966,48.970167],[2.36596,48.970152],[2.365944,48.970101],[2.365944,48.970098],[2.365942,48.970092],[2.36594,48.970083],[2.365939,48.970081],[2.365935,48.970069],[2.365935,48.970066],[2.36593,48.970053],[2.365926,48.970038],[2.365921,48.970018],[2.36592,48.970014],[2.365889,48.969912],[2.36588,48.969879],[2.365879,48.969877],[2.365857,48.969804],[2.365857,48.969803],[2.365844,48.969761],[2.365804,48.969631],[2.365804,48.969631],[2.36579,48.969585],[2.365776,48.969538],[2.365761,48.969489],[2.365761,48.969487],[2.365744,48.969432],[2.365727,48.969376],[2.36571,48.969317],[2.36571,48.969316],[2.365692,48.969254],[2.365673,48.969192],[2.365673,48.969192],[2.365635,48.969065],[2.365635,48.969064],[2.365596,48.968938],[2.365578,48.968875],[2.365577,48.968874],[2.365557,48.96881],[2.365498,48.968616],[2.365459,48.968485],[2.365441,48.968421],[2.365441,48.96842],[2.365423,48.968357],[2.365422,48.968356],[2.365384,48.96823],[2.365384,48.968229],[2.365363,48.968164],[2.365279,48.967887],[2.36526,48.96782],[2.365259,48.967818],[2.365238,48.96775],[2.365238,48.967748],[2.365216,48.96768],[2.365214,48.967676],[2.365161,48.967543],[2.365158,48.967538],[2.365128,48.967474],[2.365125,48.96747],[2.365091,48.967408],[2.365089,48.967405],[2.365053,48.967345],[2.36505,48.967341],[2.365009,48.967282],[2.365007,48.967278],[2.364921,48.967164],[2.364919,48.967161],[2.364875,48.967105],[2.364874,48.967104],[2.364784,48.966994],[2.364697,48.966886],[2.364696,48.966885],[2.36461,48.966781],[2.364567,48.966728],[2.364567,48.966727],[2.364481,48.966623],[2.36444,48.966571],[2.364439,48.96657],[2.364353,48.966466],[2.364312,48.966415],[2.364311,48.966414],[2.364268,48.966362],[2.364183,48.966255],[2.364182,48.966255],[2.3641,48.966153],[2.364099,48.966153],[2.364027,48.966065],[2.364024,48.966061],[2.363989,48.966023],[2.36398,48.966014],[2.363902,48.965943],[2.363898,48.965939],[2.363817,48.965871],[2.363816,48.96587],[2.363778,48.965838],[2.363705,48.965776],[2.363705,48.965776],[2.363635,48.965716],[2.363607,48.965692],[2.363602,48.965688],[2.36358,48.965671],[2.363564,48.965657],[2.363555,48.965649],[2.36355,48.965645],[2.36354,48.965636],[2.36352,48.965619],[2.36349,48.965594],[2.36349,48.965594],[2.363429,48.965542],[2.363427,48.96554],[2.363397,48.965516],[2.36335,48.965476],[2.363325,48.965454],[2.363309,48.965439],[2.363306,48.965436],[2.363233,48.965373],[2.363231,48.965371],[2.36321,48.965354],[2.363135,48.96529],[2.36308,48.965243],[2.362951,48.965133],[2.36295,48.965132],[2.362878,48.965071],[2.362804,48.965007],[2.362803,48.965006],[2.362726,48.964941],[2.362648,48.964874],[2.36257,48.964806],[2.362569,48.964805],[2.362409,48.964669],[2.362408,48.964668],[2.362331,48.964602],[2.362182,48.964473],[2.36211,48.96441],[2.36211,48.96441],[2.362039,48.964349],[2.362038,48.964349],[2.361973,48.964293],[2.361913,48.964241],[2.361911,48.964239],[2.361855,48.964191],[2.361854,48.96419],[2.361759,48.964112],[2.361754,48.964108],[2.361712,48.964076],[2.36171,48.964075],[2.361668,48.964044],[2.361663,48.96404],[2.361618,48.96401],[2.361615,48.964008],[2.361525,48.96395],[2.361517,48.963946],[2.361425,48.963893],[2.361419,48.96389],[2.361371,48.963865],[2.361366,48.963862],[2.361272,48.963818],[2.36127,48.963817],[2.361166,48.963769],[2.361163,48.963768],[2.361109,48.963744],[2.361058,48.963722],[2.361058,48.963722],[2.360975,48.963685],[2.360969,48.963683],[2.360936,48.96367],[2.36033,48.963417],[2.36028,48.963392],[2.360264,48.963385],[2.360218,48.963367],[2.360177,48.963348],[2.360167,48.963345],[2.360124,48.963328],[2.360062,48.963301],[2.360062,48.9633],[2.360044,48.963293],[2.359832,48.963197],[2.359755,48.963149],[2.359683,48.963084],[2.359653,48.963046],[2.359621,48.963],[2.359559,48.962906],[2.359529,48.962862],[2.359529,48.962861],[2.359499,48.962817],[2.359499,48.962816],[2.359469,48.962772],[2.359441,48.962728],[2.359385,48.962638],[2.359363,48.962596],[2.359346,48.962551],[2.359329,48.962507],[2.359307,48.962411],[2.359301,48.962362],[2.359301,48.962361],[2.359293,48.962308],[2.359287,48.962252],[2.359287,48.962251],[2.35928,48.962192],[2.359266,48.962076],[2.35926,48.962019],[2.359254,48.96196],[2.359254,48.961959],[2.359247,48.961899],[2.359239,48.961838],[2.359239,48.961838],[2.359232,48.961778],[2.359218,48.961663],[2.359218,48.961662],[2.359211,48.961606],[2.359204,48.961552],[2.359204,48.96155],[2.359197,48.961494],[2.359191,48.961442],[2.359191,48.961441],[2.359178,48.961341],[2.359173,48.961297],[2.359173,48.961296],[2.359168,48.961254],[2.359168,48.961253],[2.359163,48.961215],[2.359163,48.961214],[2.359158,48.96118],[2.359156,48.961158],[2.359153,48.961145],[2.359153,48.961142],[2.359086,48.960556],[2.359087,48.960546],[2.359079,48.960502],[2.359071,48.960431],[2.35907,48.960429],[2.359043,48.96024],[2.359042,48.960221],[2.359042,48.960215],[2.359037,48.960172],[2.359032,48.960131],[2.35903,48.960091],[2.35903,48.960088],[2.359026,48.960051],[2.359026,48.960051],[2.359017,48.959957],[2.359005,48.959923],[2.358977,48.959892],[2.358936,48.959869],[2.358887,48.959855],[2.358833,48.959852],[2.358781,48.95986],[2.358734,48.959878],[2.358699,48.959905],[2.358678,48.959937],[2.358673,48.959973],[2.358683,48.960066]]]]}},{"type":"Feature","properties":{"ID":"TRONFERR0000000242621055","NATURE":"Tramway","NB_VOIES":"2","ligneratp":"T2","categorie":"5","tampon":"10","largeurpf":"4.8"},"geometry":{"type":"MultiPolygon","coordinates":[[[[2.217519,48.924625],[2.21762,48.924081],[2.21762,48.924079],[2.217683,48.92369],[2.21776,48.923266],[2.21776,48.923265],[2.217817,48.922946],[2.217836,48.922849],[2.217866,48.922715],[2.217889,48.922638],[2.217908,48.9226],[2.217928,48.922568],[2.217982,48.92251],[2.21804,48.922464],[2.218268,48.922296],[2.218905,48.92184],[2.2191,48.921707],[2.219102,48.921706],[2.219381,48.921511],[2.219381,48.92151],[2.219988,48.921084],[2.219988,48.921083],[2.220535,48.920694],[2.221403,48.920076],[2.221433,48.920047],[2.221447,48.920014],[2.221445,48.919979],[2.221427,48.919946],[2.221394,48.919919],[2.22135,48.919899],[2.221299,48.91989],[2.221247,48.919891],[2.221197,48.919903],[2.221155,48.919925],[2.220286,48.920542],[2.220286,48.920542],[2.21974,48.920931],[2.219134,48.921358],[2.218856,48.921552],[2.21866,48.921686],[2.218657,48.921688],[2.218018,48.922146],[2.218017,48.922147],[2.217785,48.922317],[2.21778,48.922321],[2.217714,48.922374],[2.217701,48.922386],[2.217633,48.922457],[2.21762,48.922474],[2.217592,48.922519],[2.217588,48.922527],[2.217564,48.922575],[2.217559,48.922588],[2.217533,48.922674],[2.217532,48.92268],[2.217501,48.922818],[2.2175,48.92282],[2.217481,48.922918],[2.217481,48.922919],[2.217424,48.92324],[2.217347,48.923664],[2.217347,48.923666],[2.217284,48.924055],[2.217183,48.924598],[2.217183,48.924599],[2.21713,48.924901],[2.217133,48.924936],[2.217151,48.924968],[2.217184,48.924996],[2.217228,48.925015],[2.217279,48.925024],[2.217332,48.925023],[2.217382,48.925011],[2.217423,48.924989],[2.217452,48.92496],[2.217467,48.924926],[2.217519,48.924625]]]]}}]}